market_id,market_name,street,city,state,zip,lat,lon
1018261,Caledonia Farmers Market Association - Danville,,0,0,5828,44.411036,-72.140337
1009994,18th Street Farmer's Market,18th and Broadway,1,1,69361,41.864268,-103.662538
1000709,26th Annual Highlands Business Partnership's Farmers Market,71 Waterwitch Avenue,2,2,7732,40.404837,-73.994358
1019956,29 Palms Farmers' Market,73484 Twentynine Palms Hwy,3,3,92277,34.13576,-116.058946
1009959,2nd Street Market - Five Rivers MetroPark,600 E. 2nd Street,4,4,45402,39.762593,-84.18103
1004950,3 French Hens French Country Market,123 W. Illinois ave.,5,5,60450,41.356383,-88.425186
1019938,3rd Day Farmer's Market,3234 S. LaChance Rd,6,6,49651,44.292952,-85.296147
1021607,4 Veggies & 3 Fruits Farmer’s Market,140 W 62nd Street,7,5,60621,41.781896,-87.629595
1018965,61st Street Farmers Market,6100 S. Blackstone Ave,7,5,60637,41.784079,-87.5905914
1009004,A Growers' Market,229 Lake Ella Drive,8,7,32303,30.461953,-84.279874
1019473,Aberdeen Sunday Market,Broadway between Heron & State St,9,8,98520,46.972973,-123.816413
1010487,Abingdon Farmers Market,Corner of Remsburg Drive & Cummings St,10,9,24212,36.708863,-81.97716
1019695,Abita Springs Art & Farmers Market,22049 Main Street,11,10,70420,30.479064,-90.038907
1021442,Adams County Farmer's Market,110 W. Main St.,12,4,45693,38.795296,-83.546357
1019676,Adams County Farmers Market,103 Carlisle Street,13,11,17325,39.830597,-77.234147
1019351,Adams County Farmers' Market Association,103 Carlisle Street,13,11,17325,39.830597,-77.234147
1019847,Adams-Ricci Farmers Market,100 East Penn Drive,14,11,17025,40.273997,-76.937407
1008961,Adaptations' Fresh Feast,"79-7500 Mamalahoa Highway, Unit 1",15,12,96750,19.525784,-155.9236509
1019203,AG Farmers' Market,108 Indian Head Road,16,2,8753,39.992509,-74.207478
1012233,Agricenter International Farmer's Market,7777 Walnut Grove Rd,17,13,38120,35.127452,-89.801733
1005258,Aina Moana  Park (People's Open Market),1201 Ala Moana Boulevard,18,12,96822,21.287867,-157.84493
1008054,Airport Farmers and Flea Market,17375 Spring Hill Dr,19,7,34604,28.481294,-82.441514
1008612,Alachua County Farmers' Market,5920 NW 13th Street,20,7,32653,29.7106652,-82.352515
1018304,Alamo Heights Farmers Market,255 E Basse,21,14,78209,29.493258,-98.481174
1004070,Alamosa Farmers Market,Corner of 6th Street and State Avenue's Parking Lot,22,15,81101,37.467321,-105.865006
1021689,Albany Farmers' Market,4th & Ellsworth,23,16,97321,44.635052,-123.106097
1019371,Albany IN Farmers Market,208 E. State Street,23,17,47320,40.299191,-85.235831
1021578,Albany Square Farmers Market,,23,18,64402,40.247729,-94.333605
1000519,Alexandria Bay Farmers Market,Route 12,24,19,13607,44.331171,-75.916118
1019113,Alexandria Farmers Market,Broadway & Second Ave,25,20,56308,45.890762,-95.375902
1021464,Alexandria Farmers Market,2727 JACKSON STREET,25,10,71301,31.294467,-92.466488
1021597,Algoma Sunday Farmers Market,Clark St. and Lake St.,26,21,54201,44.607438,-87.435983
1019831,Allen County Farmers' Market,Jefferson,27,22,66749,37.927427,-95.400669
1019832,Allen County Farmers' Market,807  N. State,28,22,66749,37.927427,-95.400669
1012389,Aloha Community Farmers' Market,17675 SW Farmington Rd and SW Kinnaman Rd,29,16,97007,45.480164,-122.858722
1020150,Alturas Farmers Market,108 S Main St,30,3,96101,41.483907,-120.542201
1021309,Ambler Farmers' Market,29 West Butler Pike,31,11,19002,40.153501,-75.225298
1011171,Ames Main Street Farmers' Market,300 & 400 Blocks of  Main Street,32,23,50010,42.025222,-93.614943
1003563,Amicalola Regional Farmers Market,186 Recreation Road,33,24,30534,34.437795,-84.099043
1019438,Amqui Station Farmers Market,303 Madison Street,34,13,37115,36.257792,-86.717491
1012157,Anaconda Community Market,Kennedy Common (306 Main),35,25,59711,46.099059,-113.139108
1005944,Anacortes Farmers Market,611 R Avenue,36,8,98221,48.516974,-122.609181
1019647,Anderson County Farmers Market,402 N. Murray Ave,37,26,29621,34.506898,-82.652197
1020084,Anderson County Farmers Market,1505 US-127 N,38,27,40342,38.076447,-84.917629
1003516,Andersonville Farmers Market,1500 W. Catalpa Ave.,7,5,60640,41.981745,-87.668602
1020060,Andover Farmers Market,41 Central Street,39,28,1810,42.653616,-71.143138
1019484,Annandale Farmers Market,6621 Columbia Pike,40,9,,38.832801,-77.196229
1019096,Annandale Farmers Market - ACT,25 East Cedar St,40,20,55302,45.2636097,-94.1238322
1018934,"Antigo Farmers Market, Inc.",420 Field Street,41,21,54409,45.138703,-89.14985
1019350,Antioch's Farmers Market,900 Skidmore Drive,42,5,60002,42.478128,-88.09457
1000431,Appleton Downtown Farm Market,100 College Avenue,43,21,54911,44.26201,-88.40703
1021359,Aquidneck Growers Market - Wednesday,Memorial Blvd,44,29,2840,41.483658,-71.305831
1021733,Aquidneck Growers Market Miantonomi Community Farmers Market,120 Hillside Avenue,44,29,2840,41.509894,-71.30979
1021732,Aquidneck Growers Market- Saturday Summer,35 Dexter St,44,29,2840,41.509123,-71.304555
1019662,Arlington Village Farmers Market,3904 VT-7A,45,0,5250,43.072884,-73.146078
1019904,Armory Farmers Market,85 Parade St,46,29,2909,41.814767,-71.4316
1019222,Arnold Farmers Market,2400 Bradley Beach Road,47,18,63010,38.453275,-90.353093
1019495,Artisan Alley Farmers and Makers Market,Artisan Alley,48,7,32720,29.027562,-81.304341
1020068,Artistlane Farmers Market,1966 Broad Street,49,24,30904,33.365531,-82.073422
1009810,Ashland Farmers Market,125 Front St,50,28,1721,42.260027,-71.461538
1021627,Astoria Sunday Market,12th and Commercial St.,51,16,97103,46.188719,-123.83015
1001245,ASU Regional Farmers' Market,3300 Aggie Road,52,30,72401,35.840771,-90.667327
1002984,Atchison Farmers Market,Between 5th and 6th Streets on the south side of Main Street,53,22,66002,39.560737,-95.119878
1005086,Athens Farmers Market,1002 East State Street,54,4,45701,39.336038,-82.056622
1018033,"Athens Farmers Market, L.L.C.",271 W Hancock Ave,54,24,30601,33.959088,-83.380247
1018032,"Athens Farmers Market, LLC",705 Sunset Dr,54,24,30606,33.9644564,-83.4121317
1021450,Athol Farmers Market,30355 N 3rd Street,55,31,83801,47.944594,-116.707904
1018330,"Attleboro Farmers Market, inc",201 County Street,56,28,2703,41.937562,-71.299235
1021225,Atwater Village Farmers' Market,3528 Larga Ave,57,3,90039,34.117828,-118.260151
1019789,Auburn Farmers Market,1140 Auburn Way S,58,8,98002,47.298267,-122.218459
1021329,Aurora Farmers Market,170 Main Street,59,19,13026,42.744684,-76.699995
1000559,Aurora Local Farmer's Market - Summer Market,2031 S. Elliott Ave.,59,18,65605,36.948908,-93.7201867
1021534,AUSTIN FARMERS MARKET,9607 RESEARCH BLVD,60,14,78759,30.387094,-97.741448
1019396,Avon Farmers Market,8190 E US Highway 36,61,17,,39.765279,-86.38263
1019126,Avon Library Farmers Market,"281 COUNTRY CLUB RD., C/O AVON LIBRARY",62,32,6001,41.78971,-72.860448
1021528,Backyard Market in Black Forest,12530 Black Forest Rd,63,15,80908,39.014791,-104.702384
1021530,Backyard Market in Black Forest - Holiday,13710 Black Forest Road,63,15,80908,39.029861,-104.701697
1021529,Backyard Market in Black Forest - Winter,6845 Shoup Road,63,15,80908,39.013991,-104.698264
1019044,Bainbridge Farm Market,201 Grant Ave,64,17,46105,39.7622329,-86.817696
1019076,Baldwin's Main St. Farmers Market,Main St. and 6th Ave.,65,21,54002,44.966999,-92.370763
1021338,Ballard Farmers Market,5300 Ballard AVE NW,66,8,98107,47.667512,-122.3845
1021521,Bamberg Farmers Market,12205 Heritage Hwy,67,26,29003,33.300136,-81.031222
1012081,Bangor Farmers' Market,Corner of Franklin and Harlow Streets,68,33,4401,44.8039587,-68.771649
1021582,Barm Bargains Market,3782 Winding Creek Ln,69,3,95633,38.840227,-120.878152
1001604,Barnegat Farmers Market,14 Birdsall St.,70,2,8005,39.753903,-74.221654
1020029,Barrow County Farmers Market,30 N. Broad St,71,24,30680,33.993074,-83.721123
1003335,Basalt Sunday Market,101 Midland Avenue,72,15,81621,39.368957,-107.034736
1019871,Bassett Farmers Market,200 Clark St.,73,1,68714,42.582541,-99.536625
1000436,Bastrop 1832 Farmers Market,1302 Chestnut Street,74,14,78602,30.111777,-97.311627
1021540,Batavia Farmers' Market,North River Street,75,5,60510,41.851028,-88.306027
1021265,Batesville Farmers Market,Main and Boehringer Street,76,17,47006,39.298852,-85.221859
1021443,Battle Creek Farmers Market,25 S McCamly St,77,6,49017,42.32009,-85.18515
1019617,Bay Area Farmers Market,500 Baybrook Mall Drive,78,14,77546,29.548702,-95.150682
1019874,Beatrice Farmers Market Indian Creek Mall,Indian Creek Mall 2205 N 6th St,79,1,68310,40.273594,-96.747301
1020102,Beattyville Main Street Marketplace Locally Made Market,26 Hwy 52 W,80,27,41311,37.591129,-83.705633
1018735,Beaumont Farmers' Market,,81,14,77707,30.067686,-94.169203
1019875,Beaver City Farmers Market,,82,1,,40.138332,-99.827615
1020097,Beaver Dam Farmer's Market,Hwy 231 South,83,27,42320,37.407199,-86.877647
1021630,Beaverdale Farmers Market,4801 Franklin Avenue,84,23,50310,41.612479,-93.68471
1019853,Bedford Farmers Market,209 Route 101,85,34,3110,42.938268,-71.525849
1019400,Bedminster Farmers Market,3055 River Road,86,2,7921,40.662856,-74.646889
1010607,Bel Air Farmers' Market,2 South Bond Street,87,35,21014,39.535284,-76.351011
1011902,Belleville Farmer's Market,1815 M St.,88,22,66935,39.822988,-97.630924
1021363,Belleville Farmers Market,Main and 4th,88,6,48111,42.201917,-83.482812
1008140,Bellingham Farmers Market,1207 10th Street,89,8,98226,48.75262,-122.469657
1002064,Belmont Farmers Market,5429 State Route 19N,90,19,14813,42.234077,-78.053508
1011363,Belton Farmers Market,Memorial Park,91,18,64012,38.808556,-94.525252
1001316,Bemidji's Natural Choice Farmers Market,Union Square Parking Lot--2nd Street & Paul Bunyan Drive,92,20,56601,47.469337,-94.880609
1001533,Benica Certified Farmers Market,First Street between B & D Streets,93,3,94510,38.046215,-122.161188
1018644,Bennet Farmers' Market,Elm and Harrison,94,1,68317,40.680612,-96.503262
1021403,Bentonville Farmers Market,100 N. Main Street,95,30,72712,36.372637,-94.208458
1005183,Berkeley Springs Farmers Market,129 Fairfax Street at Washington Street/522,96,36,25411,39.624722,-78.227534
1019005,Berkey Farmers Market,12290 Sylvania-Metamora Rd,97,4,43504,41.715538,-83.839418
1021628,Berwick Winter Farmers Market,11 Sullivan St.,98,33,3901,43.269956,-70.86243
1019168,BESSEMER FARMERS MARKET,1st Avenue N and 19th Street,99,37,35020,33.40113,-86.95137
1019169,Bessemer Farmers Market at Medical West,995 9th Ave SW,99,37,35022,33.373082,-86.990644
1019967,Bethalto Market In The Park,213 N Priaire St,100,5,62010,38.902967,-90.053468
1021322,"BETHANY BEACH FARMERS' MARKET, INC.",601 castle court,101,38,19930,38.538397,-75.056515
1010406,Bethesda Central Farm Market,7600 Arlington Road,102,35,20814,38.986761,-77.09989
1012494,Bethlehem Farmers' Market,Intersection of New and Morton Streets,103,11,18015,40.6098058,-75.3784029
1020196,Beverly Hills Farmers Market,9300 Civic Center Dr,104,3,90210,34.073685,-118.398746
1019765,Bexley Farmers Market,E Main St and S Dawson Ave,105,4,43209,39.957135,-82.935745
1005949,Big Bear Farmers Market,42900 Big Bear Blvd,106,3,92315,34.260803,-116.866714
1019338,Big Lake Farmers Market,101 Lakeshore Drive,107,20,55309,45.333773,-93.758167
1019339,Big Lake Winter Farmers Market,311 Lake Street South,107,20,55309,45.329205,-93.747475
1019591,Billerica Farmers Market,25 Concord Road,108,28,1821,42.557646,-71.269999
1021508,Birdsboro Farmers Market,226 N Water St,109,11,19508,40.262329,-75.810113
1011037,BisMarket,,110,39,58501,46.803081,-100.796471
1012163,Blairstown Farmers' Market,5 Stillwater Road,111,2,7825,40.982893,-74.955689
1011829,Bloomfield Saturday Market,5050 Liberty Ave,112,11,15224,40.459005,-79.944435
1018396,Bloomington Community Farmers' Market,401 N MortonSt,113,17,47404,39.1703084,-86.5369425
1018563,Bloomington Winter Farmers' Market,1601 S Rogers St,114,17,47403,39.149906,-86.539649
1019932,Blue Ash Farmers Market,4335 Glendale Milford Road,115,4,45242,39.251798,-84.389892
1020098,"Bluegrass Farmers Market, Inc",1837 Plaudit Place,116,27,40509,38.014875,-84.418747
1019372,Bluffton Farmers Market,102 S Main St,117,4,45817,40.893082,-83.892721
1019440,Bluffton Farmers' & Artisans' Market,360 N Main St,117,17,46714,40.743479,-85.172111
1018092,BMI Farmers' Market,1415 Key Highway,118,35,21230,39.273864,-76.601326
1018313,Boise Farmers Market,10TH & GROVE  - SUMMER MARKET,119,31,83702,43.532957,-116.444084
1018316,BOISE FARMERS MARKET,516 S. 8th Street,119,31,83702,43.60798,-116.19193
1020101,Boone County Farmers Market,1961 Burlington Pike,120,27,41005,39.022231,-84.721563
1006833,Boone Farmers Market Association,7th and Story Street,121,23,50036,42.062726,-93.879688
1019318,Boonville Farmers Market Inc,1931 Boone Village Shopping Center,122,18,65233,38.955643,-92.741591
1019693,Botetourt Farmer's Market,90 Town Center St,123,9,24083,37.417795,-79.912646
1018394,Bottineau Farmers Market,6th Street and Main Street,124,39,58318,48.8262788,-100.4459433
1001526,Boulder Farmers and Artisan's Market,304 N. Main Street,125,25,59632,46.239153,-112.117592
1019165,Bowie Farmers' Market,15200 Annapolis Road,126,35,20715,38.97832,-76.741902
1020096,Boyd County Farmers Market - King's Daughters Medical Center,2420 Center Street,127,27,41129,38.470783,-82.630489
1020099,Boyd County Farmers Market - KYOVA Mall,10699 US-60,50,27,41102,38.400138,-82.712555
1019205,Boyne City Farmers Market,319 N. Lake St,128,6,49712,45.21685,-85.015378
1021248,Braeswood Farmers Market,5401 south braeswood,129,14,77096,29.676944,-95.477537
1018227,Braintree Farmers Market,1 JFK Memorial Dr,130,28,2184,42.206437,-71.004927
1002407,Brattleboro Area Farmers' Market,570 Western Ave.,131,0,5301,42.8499,-72.58407
1011075,Brattleboro WInter Farmers' Market,80 Flat St.,131,0,5301,42.850844,-72.560166
1020113,Breathitt County Farmers' Market,3215 Quicksand Road,132,27,41339,37.535327,-83.348327
1018556,Bremerton Community Farmers Market,1400 Park Ave,133,8,98337,47.574253,-122.628866
1019146,Bridgewater Farmer's Market,1 Vogt Drive,134,2,8807,40.588552,-74.607976
1018756,Brigham City Farmers Market,20 N Main Street,135,40,84302,41.510773,-112.015057
1005483,Brimfield at Hitchcock Free Academy,"Hitchcock Free Academy, a community center parking lot, at  2 Brookfield Rd.",136,28,1010,42.122751,-72.199901
1019905,Broad St. Farmers Market,807 Broad St.,46,29,2907,41.801869,-71.41892
1019257,Broadway Farmers Market,161 S Main St,137,9,22815,38.611375,-78.799904
1019984,Brockton Farmers Market,45 School St,138,28,2301,42.082799,-71.018866
1019794,Bronzeville Growers Market,925 E. Mt. Vernon Avenue,139,4,43203,39.97139,-82.976997
1019527,BROOKINGS HARBOR FARMERS MARKET,15786 HWY 101 SOUTH,140,16,97415,42.037301,-124.244963
1021210,Brookline Farmers' Market,Centre Street West PArking Lot,141,28,2446,42.34219,-71.123782
1021736,Brookside Farmers' Market,6425 Wornall Road,142,18,64113,39.125212,-94.551136
1018891,Brooksville Farmers' Market,15487 Citrus Way,19,7,34614,28.654639,-82.449304
1021515,Brookville Farmer's Market,116 Main Street,143,17,47012,39.412804,-85.012083
1021262,Broome County Regional Farmers Market,840 Upper Front St,144,19,13905,42.129759,-75.904648
1019906,Brown University Farmers Market,201 Thayer St,46,29,2906,41.826418,-71.400031
1019727,Brownsburg Farmers Market,61 N. Green Street,145,17,46112,39.844272,-86.396445
1017968,Bruce Community Farmers Market,Corner of Hwy 8 and N Alvey Street,146,21,54819,45.4551101,-91.2746971
1008607,Brunswick-Topsham Land Trust Farmers' Market at Crystal Spring Farm,277 Pleasant Hill Rd,147,33,4011,43.890786,-69.995923
1021311,Bryn Mawr Farmers' Market,775 Lancaster Avenue,148,11,19010,40.021168,-75.317067
1019218,Buckroe Beach Farmers Market,100 N. First Street,149,9,23664,37.041273,-76.291807
1008953,Bucksport Bay Farmers' Market,99 Main Street,150,33,4416,44.572636,-68.796497
1000843,Burbank Certified Farmers' Market,"150 N. Third Street Burbank, CA 91502",151,3,91502,34.1828004,-118.3079771
1019492,Burke,5671 Roberts Parkway,152,9,22015,38.776991,-77.263568
1021524,Burke Area Farmers Market,626 County Road,152,41,57523,43.185042,-99.299066
1019965,Burlington Farmers Market,345 Pine Street,120,0,5401,44.46973,-73.215415
1021728,Burrillville Farmers Market,75 Tinkham Lane,153,29,2830,41.967496,-71.677124
1002567,"Butler County Farmers Market, Greenville, AL",701 Cedar,154,37,36037,31.830281,-86.617709
1001362,Butte Farmers Market,Uptown Butte,155,25,59701,46.01269,-112.5364
1021238,Buy Local Farmers Market - Fall Creek,7930 Fall Creek Bend,156,14,77396,29.93294,-95.269976
1021614,C & C Garden,2022 S Scott St,157,17,46613,41.657676,-86.26681
1020089,Cadiz/Trigg County Farmers Market,7 0 Main Street,158,27,42211,36.862889,-87.835998
1004927,Cagan Crossings Farmers' Market,600 Cagan Park Ave.,159,7,34714,28.355644,-81.678425
1019922,CalaverasGROWN Certified Farmers' Market San Andreas,891 Mountain Ranch Road,160,3,95249,38.191243,-120.667822
1019978,CalaverasGROWN Murphys Certified Farmers' Market,505 S. Algiers St.,161,3,95247,38.13686,-120.463811
1018263,Caledonia Farmers Market Association - Winter,Pearl St,162,0,5819,44.417224,-72.016831
1019980,Caledonia Outdoor Market,3920 N Greenbay Rd,163,21,53404,42.769605,-87.822883
1020188,California Avenue Farmers' Market,"California Avenue, at El Camino",164,3,94306,37.46778,-122.13255
1018459,California Farmers Market,22810 Three Notch Road,165,35,20619,38.294524,-76.499596
1019997,Camarillo Hospice Certified Farmers Market,2220 Ventura Blvd.,166,3,93010,34.216518,-119.041574
1020160,Cambria Farmers Market,1000 Main Street,167,3,93428,35.564323,-121.096629
1020183,Cambrian Park Farmers' Market,Camden Avenue and Union Avenue,168,3,95124,37.296867,-121.819306
1002674,Camellia City Farmers Market,333 Erlanger Ave. (corner of 3rd. St.),169,10,70458,30.275994,-89.780754
1021575,Cameron Park Burke Junction Certified Farmers Market,Burke Junction Shopping Certer,170,3,95672,38.657829,-120.973615
1020117,Campbell County Farmers Market Association,7634 Alexandria Pike,25,27,41001,38.97801,-84.392139
1020118,Campbell County Farmers Market Association,3504 Alexandria Pike,171,27,41075,39.028829,-84.451866
1020119,Campbell County Farmers Market Association,709 Monmouth St,44,27,41071,39.090164,-84.491761
1020184,Campbell Farmers' Market,Campbell Avenue & Central Avenue,172,3,95008,37.280232,-121.954352
1009034,Canal District Farmers Market,200 Harding Street,173,28,1604,42.256235,-71.797436
1019810,Canal Market District,36 East Canal Street,174,4,43055,40.056586,-82.401032
1021202,Canal Village Farmers' Market,127 West Center Street,175,19,14103,43.220102,-78.388368
1012038,Canoga Park Certified Farmers Market,7248 Owensmouth st,176,3,91303,34.203746,-118.601612
1019772,Canton Farmers Market,500 North Ridge Road,177,6,48188,42.308841,-83.533591
1021435,Canton Farmers' Market,300 Market Ave N,177,4,44702,40.80065,-81.374888
1021294,Cape Coral Farmers Market,SE 47th Terrace & SE 10th Place,178,7,33904,26.564457,-81.954459
1021655,Cape Riverfront Market,35 S Spanish Street,179,18,63703,37.302782,-89.519952
1011930,Capital City Farmers Market,126 West Loockerman Street (Loockerman Way Plaza),180,38,19904,39.1576541,-75.5262294
1018359,Capital Harvest on the Plaza,1300 Pennsylvania Avenue,181,42,20004,38.894748,-77.030256
1008450,Carmel Farmers Markets at the Barnyard Shopping Village,3690 The Barnyard,182,3,93923,36.9872756,-121.9270394
1006651,Carnation Farmers Market,Corner of Bird and Stossel,183,8,98014,47.648587,-121.912419
1019417,Carolina fresh market and more,6619 hwy 29 north,184,26,29669,34.641892,-82.4614
1021269,Carrboro Farmers' Market,301 W Main St,185,43,27510,35.910781,-79.077607
1008322,Carrollton Farmers Market,Carrollton Uptown Square,186,18,64633,39.358097,-93.496941
1021213,Carson Farmers Market @3rd & Curry St.,3rd & Curry St.,187,44,89703,39.162841,-119.768164
1020071,Carter County Farmers’ Market - Grayson,94 FAIRGROUND DR,188,27,41143,38.331557,-82.904359
1020074,Carter County Farmers’ Market - Olive Hill,131 Jessica Lane,189,27,41164,38.29761,-83.180887
1012093,Carver Farmers Market,108 Main St.,190,28,2330,41.888852,-70.769182
1021740,Casey Farm Market,2325 Boston Neck Rd.,191,29,2874,41.51301,-71.423314
1008276,Catawba County Public Health Farmers Market,3070 11th Ave Dr. SE,192,43,28602,35.712066,-81.269507
1019159,Catawba Valley Farmers Market,4965 Catawba Creek Road,193,9,24070,37.3835006,-80.1068482
1021242,CAVE SPRING FARMERS MARKET,6770 Cave Spring Rd SW,194,24,30124,34.132871,-85.30991
1012484,Cedar Mill Farmers Market,Corner Of NW Cornell and Murray Roads,195,16,97229,45.5263877,-122.8141034
1019842,Cedar Point Farmers Market,1046 Cedar Point Blvd.,196,43,28584,34.68261,-77.083526
1021362,Celina Farmers Market,1001 W Market St.,197,4,45822,40.549633,-84.582827
1018734,Celina's Friday Night Market,142 N Ohio Street,197,14,75009,33.3247511,-96.7869845
1021226,Central Avenue Farmers' Market,4301 S Central Ave,57,3,90011,34.005326,-118.256796
1019907,Central Falls Farmers Market,559 Dexter St,198,29,2863,41.885605,-71.39565
1019618,Central Kitsap Farmers Market,2251 NW Bucklin Hill Rd,199,8,98383,47.650238,-122.680109
1020142,Certified Farmers' Market Palm Springs - Indoor,401 S. Pavilion Way,200,3,92262,33.817078,-116.525258
1020141,Certified Farmers' Market Palm Springs - Outdoor,2300 E. Baristo Rd,200,3,92262,33.820251,-116.521181
1020058,CFFMA - Ft Washington Farmers Market - Sunday,NE Corner Friant and Ft Washington,201,3,93730,36.874654,-119.776881
1020057,CFFMA - River Park Farmers Market - Saturday,SE Corner Blackstone and Nees,201,3,93720,36.849327,-119.789099
1020056,CFFMA - River Park Farmers Market - Tuesday,SE Corner Blackstone and Nees,201,3,93720,36.849308,-119.789095
1019225,Challis Community Farmers Market,Challis City Park,202,31,83226,44.505154,-114.227231
1021267,Champlain Islands Farmers' Market - Wednesday,501 U.S Route 2,203,0,5486,44.661841,-73.323048
1021564,Champlain Islands Farmers' Market-Saturday,185 US Route 2,204,0,5458,44.7968758,-73.294874
1018886,Charles Town Farmers Market,100 block of South Samuel Street,205,36,25414,39.289073,-77.858454
1017995,Charleston Farmers Market,,206,30,72933,35.2970353,-94.0363153
1021741,Charlestown Land Trust Farmers' Market,4150 Old Post Road,207,29,2813,41.38411,-71.621941
1011689,Charlotte Regional Farmers Market,1801 Yorkmont Road,208,43,28217,,
1005834,Chatham Farmer's Market,1652 Main Street Rte 28,209,28,2633,41.676615,-69.962249
1019881,Chatter Box Farmers Market in Tekamah,,210,1,,41.775832,-96.222387
1004754,Chelsea Farmers' Market,Corner of Rte 110 and Rte 113,211,0,5038,43.98878,-72.44747
1008606,Chesterfield County Farmers Market,near 6701 Mimms Loop,212,9,23832,37.376728,-77.504419
1021310,Chestnut Hill Farmers' Market,7673 Germantown Avenue,213,11,19118,40.06776,-75.196931
1020128,Chico Certified Farmers Market - Chico Saturday,2nd and Wall Streets,214,3,95927,39.730823,-121.838323
1020129,Chico Certified Farmers Market - Chico Wednesday,North Valley Plaza Mall,214,3,95926,39.758425,-121.848452
1020127,Chico Certified Farmers Market - Paradise Tuesday,6491 Clark Road,215,3,95969,39.77368,-121.595446
1001763,Chilhowie Farmer's Market,East Lee Highway between Chestnut and Pine Avenues (Warrior Park),216,9,24319,36.80295,-81.676633
1019104,China Grove Farmers Market,308 North Main Street,217,43,28023,35.570981,-80.5778246
1008409,Chippewa Falls Farmers Market,1 S. Bridge Street,218,21,54729,44.934888,-91.389337
1021237,Church St Farmers Market,6730 Church St,219,24,30134,33.749649,-84.750061
1004360,Church Street Farmers' Market,603 Church Street,220,9,23824,37.077437,-78.008079
1021653,Circle Square Commons Farmers Market,8445 SW 80th Street,221,7,34481,29.106489,-82.257895
1019141,City Center Farmers Market,200 Sanborn Street,222,26,29501,34.198789,-79.773582
1005250,City Hall Parking Lot Deck (People's Open Market),Alapai & Beretania Street,18,12,96813,21.305408,-157.852699
1021199,City Heights Certified Farmers Market,4325 Wightman St.,223,3,92104,32.747817,-117.101527
1019717,City Market,1150 South Gay Street,58,37,36830,32.584813,-85.475592
1004255,City of Loveland Farmers Market,700 S. Railroad,224,15,80537,40.387479,-105.078652
1017956,City of North Adams Farmers' Market,"St. Anthony Municipal Parking Lot, at the intersection of Rte. 8 (Marshall St.) and St. Anthony Drive",225,28,1247,42.700694,-73.112792
1017930,City of Pittsburgh Carrick Farmers Market,1529 Brownsville Road,112,11,15210,40.400201,-79.988803
1000303,City of Plymouth Farmers Market,15500 County Road 6,226,20,55447,44.997274,-93.473419
1021433,City of Seven Hills Farmers Market,7221 Broadview Road,227,4,44131,41.369164,-81.684217
1021420,City of St. Clair Shores Farmers Market,24800 Jeffereson,228,6,48080,42.6958071,-82.932268
1006460,City of White Bear Lake Farmer's Market,"Clark Avenue, between 2nd and 3rd Street",229,20,55110,45.084125,-93.009953
1005940,CitySeed Edgewood Park Farmers Market,corner of Whalley Ave. and West Rock Ave.,230,32,6515,41.325348,-72.958562
1005941,CitySeed Fair Haven Farmers Market,Corner of Front St. and Grand Ave.,230,32,6513,41.308956,-72.888848
1019206,CitySeed Winter Market,115 Water St,230,32,6511,41.3011808,-72.9188338
1005943,CitySeed Wooster Square Farmers Market,DePalma Ct. between Chapel St. and Wooster St.,230,32,6511,41.303232,-72.917848
1002106,Claremont Farmers & Artisans Market,Harvard Avenue Between Bonita and First Streets,231,3,91711,34.095598,-117.716418
1019061,Claremont Farmers' Market,14 North Street,231,34,3743,43.375823,-72.339305
1000579,Clarence Hollow Farmers' Market,"New Town lot, 10717 Main St. (route 5)",232,19,14031,42.98032,-78.58945
1019840,Clarkston Farmers Market,"Beachview Park, Chestnut St",233,8,99403,46.410563,-117.039927
1021441,Clay Center Farmers Market,720 5th Street,234,22,67432,39.376936,-97.126471
1019110,Cleburne Farmers Market,141 S Ridgeway Drive,235,14,76033,32.339893,-97.407713
1019741,Clemmons Farmers Market,1150 S Peace Haven Road,236,43,27012,36.033223,-80.386699
1019704,Cleveland Park Farmers Market,"3400 Connecticut Ave NW, Washington, DC 20008",237,42,20008,38.934817,-77.058379
1018381,Clifton Park Farmers' Market,"971 Route 146, Shenendehowa United Methodist Church parking lot",238,19,12065,42.869606,-73.809271
1019823,Clinton Farmers Market,20 West Park Row,239,19,13323,43.048866,-75.378462
1019763,Clintonville Farmers' Market,N High St and W Dunedin Rd,139,4,43214,40.034269,-83.016501
1000549,Clio Market,21 College Street,240,37,36311,31.7078144,-85.619065
1002808,CMS Farmers Market,7500 Security Blvd.,241,35,21244,39.316055,-76.764414
1019474,Co-Operative Farmers Market,900 Barring Avenue,242,11,18508,41.422523,-75.662496
1018969,Coastal Growers Farmers Market,650 Ten Rod Rd.,243,29,2852,41.572691,-71.485463
1019821,Coastal Growers Market,2325 Boston Neck Rd,191,29,2874,41.512,-71.423632
1020135,Coastside Farmers' Market - Half Moon Bay,225 Cabrillo Highway,244,3,94019,37.46677,-122.437378
1020137,"Coastside Farmers' Market - Rockaway Beach, Pacifica",450 Old County Road,245,3,94044,37.609415,-122.495081
1021232,College Place Farmers & Artisan Market,801 SE Larch Avenue,246,8,99324,46.041708,-118.377845
1001290,Collinsville Farmers Market,Main St. and Route 179,247,32,6019,41.810819,-72.923264
1000210,Colorado Farm and Art Market,7350 Pine Creek Road,63,15,80919,38.937716,-104.814688
1009656,Colorado Farm and Art Market,215 S. Tejon,63,15,80903,38.830543,-104.822309
1018196,Columbia Farmers Fresh Market,5th Street & Riverside Drive,248,13,38401,35.6187845,-87.0304808
1019790,Columbia Farmers Market,1769 West Ash Street,248,18,65203,38.958293,-92.364624
1010758,Columbia Farmory and Mountain People Organics,10800 Airport Road,248,3,95310,38.029395,-120.410011
1019483,Columbus Farmers Market,14 st and 26 Ave,139,1,68601,41.430012,-97.36036
1019199,Columbus KS Farmers Market,202 N. East Avenue,139,22,66725,37.171861,-94.831459
1020124,Colusa Certified Farmers Market,10th Street Memorial Park,249,3,95932,39.214999,-122.014038
1011003,Colwell's Farmers Market,9079 HWY377,247,14,76240,33.5491175,-96.9110998
1021541,Come Thru Market,831 SE Salmon St,195,16,97214,45.514708,-122.657252
1019592,Como Farmer's Market,Main Street,250,45,38619,34.513561,-89.939947
1019042,Connecticut's Old State House Farmers Market,800 Main Street,251,32,6103,41.766118,-72.672892
1012030,Conway Farmers Market,1029 2nd Ave,252,26,29526,33.833331,-79.044831
1021396,Conway Farmers' Market,150 Amity Rd.,252,30,72032,35.077695,-92.41257
1006766,Coos Bay Farmers Market,"320 Central Ave., Suite 410",253,16,97420,43.367982,-124.215299
1018190,Coralville Farmers' Market,1513 7th St,254,23,52241,41.678726,-91.584155
1021639,Cornelius Farmers Market,1370 N Adair St,255,16,97113,45.521314,-123.055169
1012666,Corpus Christi Downtown Farmers' Market,100 N Shoreline Blvd,256,14,78401,27.791601,-97.392206
1008959,Cortez Farmers Market,Main and Elm Streets,257,15,81321,37.348444,-108.587634
1021691,Corvallis Farmers' Market,1st & Jackson,258,16,97330,44.564828,-123.258244
1018629,Cotati Community Farmers Market,Old Redwood Hwy and W Sierra,259,3,94931,38.326544,-122.707298
1010975,Cottage House Youth Market,47 Doster Road,260,37,36311,31.64705,-85.674054
1004382,Cottin's Hardware Farmers Market,1832 Massachusetts Street,261,22,66044,38.950747,-95.235146
1018221,Cotton Mill Farmers Market,609 Dixie Street,186,24,30117,33.571347,-85.07274
1000368,Country Lane Farmers Market,1642 16th St,262,21,54812,45.443768,-91.828516
1019530,Countryside Farmers' Market at Highland Square,1175 W Exchange St,263,4,44302,41.098698,-81.553272
1019529,Countryside Farmers' Market at Howe Meadow,4040 Riverview Rd.,264,4,44264,41.189312,-81.583614
1019531,Countryside Public Market,21 Furnace Street,263,4,44308,41.08885,-81.515871
1019258,Countryside Winter Farmers' Market,2315 Ira Rd.,263,4,44333,41.192676,-81.589922
1019325,Coventry Farmers' Market (formerly Coventry Regional Farmers' Market),2299 South St.,265,32,6238,41.764283,-72.345186
1019296,Covington Farmers Market,3rd and Greenup Street,266,27,41011,39.088659,-84.508855
1012552,Cowtown Farmers Market,3821 SOUTHWEST BLVD,267,14,,32.716447,-97.442048
1009993,Cozad Grand Generation Center,410 W 9th St.,268,1,69130,40.8606228,-99.9901154
1019130,Craft Market,"Decks Reserve Carpark, Wallace Street, Mouteka",269,46,70105,44.5205554,-109.58853
1021330,Crawfordsville Farmers Market,100 W Pike St.,270,17,47933,40.040652,-86.903732
1021331,Crawfordsville Winter Market,400 Parke Avenue,270,17,47933,40.04604,-86.896007
1021227,Crenshaw Farmers' Market,3650 W Martin Luther King Jr Blvd,57,3,90008,34.008706,-118.335422
1019260,Crescent City Farmers Market,200 Broadway Street,271,10,70118,29.932171,-90.133127
1019261,Crescent City Farmers Market,1235 N. Peters,271,10,70116,29.960279,-90.058904
1019262,Crescent City Farmers Market,200 Broadway Street,271,10,70118,29.932159,-90.133127
1002470,Croghan Colonial Bank Farmers Market,Front Street and Garrison Street,272,4,43420,41.345408,-83.1135499
1021391,Cross County Farmer's Market,"705 E. Union Avenue, Room 2",273,30,72396,35.223532,-90.786483
1012365,Crossroads Farmers Market,Anne St. at University Blvd. E,274,35,20912,38.990479,-76.990169
1001869,Crystal Lake Farmers Market,"Depot Park, Woodstock & Williams Streets",275,5,60014,42.243752,-88.31701
1021346,Culver City Farmers Market,Main Street in Culver City,276,3,90232,34.024936,-118.39464
1019701,Culver Farmers' Market,819 E. Lake Shore Drive,277,17,46511,41.218494,-86.419302
1019702,Culver Farmers' Market,107 N Main Street,277,17,46511,41.216815,-86.422907
1020109,Cumberland County Farmers' Market,819 S Main Street,278,27,42717,36.790074,-85.364614
1021387,Cumberland Farmers Market,11501 E Washington Street,279,17,46229,39.77586,-85.961539
1019539,Cuyahoga Falls Farmers' Market (Farmers' Market in the Falls),1817 Front Street,280,4,44222,41.130404,-81.48356
1021408,Dallas County Farmer's Market,206 West 3rd St.,281,30,71742,33.812858,-92.41424
1004516,Danbury Farmers' Market,120 White Street,282,32,6810,41.397912,-73.450227
1019163,Dardanelle Farmers Market,120 N Front St,283,30,,35.220839,-93.153099
1012505,Darlington Farmers Market,Main Street,284,21,53530,42.677666,-90.117445
1018157,Davenport Farmers' Market,North Park Mall east entrance,285,23,52804,41.562863,-90.571154
1019880,David City Farmers Market,,286,1,68632,41.264759,-97.129955
1012254,Dawson Farmers Market,Ash  and 8th street,287,20,56232,44.9259444,-96.0574386
1019100,Daybreak Farmers Market,Kestrel Rise Rd. and Daybreak Pkwy/W 11400 S,288,40,84009,40.547045,-112.002561
1021457,De Soto Farmers' Market,520 N. Main St.,289,18,63020,38.143674,-90.552205
1018945,Dearborn Farmers & Artisans Market,22271 West Village Drive,290,6,48124,42.313057,-83.211488
1019970,Decatur Farmers Market,308 Clairemont Ave,291,24,30030,33.778773,-84.296808
1021570,Decorah Farmers Market,Heivly Street,292,23,52101,43.301618,-91.78475
1012296,DeForest Farmers' Market,DeForest Street,293,21,53532,43.246672,-89.339846
1011103,DeKalb Farmers' Market,2nd and Locust Streets,294,5,60115,41.931127,-88.752032
1002536,Del Monte Farmers Markets at Del Monte Shopping Center,1410 Del Monte Center,295,3,93940,36.9872756,-121.9270394
1020061,Delano Neighborhood Market,1709 W Douglas,296,22,67213,37.683757,-97.360349
1018416,Delcambre Seafood & Farmers Market,605 S Railroad (Hwy 330),297,10,70528,29.941659,-91.982453
1019308,Delmar Farmers Market,332 Kenwood Ave,298,19,12054,42.619919,-73.825895
1020191,Delray GreenMarket,"NE 2nd Avenue, half block east of Atlantic Avenue",299,7,33444,26.462365,-80.071595
1021591,Delridge Farmers Market,9421 18th Ave SW,66,8,98106,47.518781,-122.358129
1021649,Denton Community Market,317 w Mulberry St,300,14,76201,33.213317,-97.136334
1007255,Des Moines Waterfront Farmers Market,22307 Dock Ave S,84,8,98198,47.401657,-122.329307
1003628,Dexter Farmers Market,3233 Alpine,301,6,48130,42.339503,-83.889459
1021318,Dickinson Square Farmers' Market,1600 East Moyamensing Avenue,213,11,19148,39.927056,-75.151276
1021261,Dillsboro Farmers Market,12921 North Street,302,17,47018,39.018037,-85.059414
1018958,Dillsburg Farmers' Market,1 N. 2nd Street,303,11,17019,40.110975,-77.037849
1019458,Dimondale Farmers' Market,136 N Bridge St,304,6,48821,42.646201,-84.647388
1018816,Dodge County Farmer's Market,5401 Courthouse Circle,305,24,31023,32.20079,-83.176305
1019742,Dodgeville Farmers Market,327 N. Iowa Street,306,21,53533,42.962345,-90.129944
1019439,Dolores County Farmers Market,390 Main Street,307,15,81324,37.764836,-108.903587
1019964,Donnelly Farmers Market,FW Gestrin and E. Roseberry Rd,308,31,83615,44.730034,-116.07672
1018706,Dorchester/Dorchester House Farmers Market,1353 Dorchester Avenue,309,28,2122,42.304202,-71.060126
1020111,Dorey Park Farmers Market,2999 Darbytown Road,310,9,23231,37.5380571,-77.405887
1003046,Dousman Farmers Market,118 S. Main St,311,21,53118,43.013121,-88.4725142
1009829,Dover Farmers' Market,550 Central Avenue,180,34,3820,43.200765,-70.875971
1009894,Down to Earth Chelsea Farmers Market,W. 23rd Street off 9th Avenue,312,19,10011,40.746359,-74.000805
1021296,Down to Earth Cunningham Park Farmers Market,Parking lot off Union Turnpike,313,19,11366,40.7308,-73.773482
1010954,Down to Earth Larchmont Farmers Market,Parking Lot off Chatsworth Ave.,314,19,10538,40.933512,-73.760008
1016793,Down to Earth Mamaroneck Winter Farmers Market,Harbor Island Park,315,19,10543,40.944797,-73.730404
1010969,Down to Earth McGolrick Park Farmers Market,At the center of the park,316,19,11222,40.724358,-73.943291
1010972,Down to Earth Morningside Park Farmers Market,110th Street and Manhattan Avenue,317,19,10026,40.801254,-73.959645
1010958,Down to Earth New Rochelle Farmers Market,Thomas Paine Cottage Museum,318,19,10804,40.93357,-73.791017
1016792,Down to Earth Ossining Farmers Market,Near the corner of Spring & Main Streets,319,19,10562,41.160793,-73.86341
1009895,Down to Earth Park Slope Farmers Market,4th Street at 5th Avenue,320,19,11215,40.672303,-73.983867
1010982,Down to Earth Queens Botanical Garden Farmers Market,Dahlia Avenue at Main Street,313,19,11355,40.751776,-73.826548
1010960,Down to Earth Rye Farmers Market,Parking lot off Theodore Fremd Ave.,321,19,10580,40.983895,-73.686043
1016867,Downingtown Farmers Market,1 Park Lane,322,11,19335,40.007243,-75.705606
1019667,Downtown Alachua Farmer's Market,14801 Main Street,323,7,32615,29.790872,-82.495552
1009043,Downtown Allen Park Farmers Market,Park Avenue and Harrison Avenue,324,6,48101,42.254801,-83.208989
1003643,Downtown Beloit Farmer's Market,"300 block of State Street, 400 block of East Grand Avenue, Gantry parking lot",325,21,53511,42.499698,-89.035555
1020064,Downtown Berkeley,1947 Center St.,326,3,94704,37.869819,-122.2716
1020000,Downtown Bloomington Farmers Market,200 N. Main,114,5,61701,40.480014,-88.994107
1020001,Downtown Bloomington Farmers Market- Indoor,101 S. Madison,114,5,61701,40.478127,-88.996165
1019370,Downtown Canton Farmers Market,202 N. Buffalo St.,177,14,75103,32.55736,-95.863185
1019944,Downtown Chico Thursday Night Market,,214,3,95928,39.728991,-121.840469
1021401,Downtown Conway Farmers' & Crafts Market,718 Parkway,252,30,72032,35.088507,-92.440867
1000841,Downtown Denison Farmers Market,701 W. Main St.,327,14,75020,33.755828,-96.54535
1019401,Downtown Elgin Farmers Market,S. Spring Ave,328,5,60120,42.036328,-88.282543
1021631,Downtown Evanston Farmers’ Market,University Place at Oak Street,329,5,60201,42.05062,-87.686152
1008853,DOWNTOWN EVANSVILLE FARMERS MARKET,"3rd, 4th and Bond Sts.",330,17,47708,37.993544,-87.586443
1002400,Downtown Farmers Market,206 S 4th Street,331,27,42071,36.6097959,-88.3022291
1019032,Downtown Farmers Market,101 North Main Street,332,26,29720,34.721099,-80.770914
1019856,Downtown Farmers Market,on the court square at 4th Street and Maple Street,331,27,,36.609868,-88.302435
1019216,"Downtown Farmers Market of Fort Pierce, Inc.",Melody Lane and Marina Square,333,7,34950,27.449057,-80.321851
1012243,Downtown Fond du Lac Farmers Market - Saturday,Main Street from Western Ave. to Sheboygan St.,334,21,54935,43.775364,-88.446973
1012256,Downtown Fond du Lac Farmers Market - Wednesday,Main Street Plaza,334,21,54935,43.777853,-88.447092
1021749,Downtown Franklin Ohio Farmers Market,One Benjamin Franklin Way,335,4,45005,39.560119,-84.302927
1019654,Downtown Green Bay Saturday Farmers Market,200 S. Washington Street,336,21,54301,44.513118,-88.017128
1019341,Downtown Lawrenceburg Farmer's Market,US 50 and Park Streets,38,17,47025,39.095734,-84.857359
1019083,DOWNTOWN LIMA FARMERS' MARKET,7 Town Square,337,4,45801,40.7395472,-84.1058237
1009757,Downtown Madison Farmers Market,2103 Main Street / Historic Red Caboose Site,34,45,39110,32.460885,-90.114634
1018930,Downtown Marquette Farmers Market,112 S. Third St.,338,6,49855,46.543488,-87.395409
1003977,Downtown Newport Farmers Market,Corner of Hwy 101 & Angle St,44,30,72112,35.6268,-91.234721
1018621,Downtown Novato Community Farmers Market,7th Street behind the CVS between Grant Ave & Novato Blvd,339,3,94947,38.107536,-122.578749
1019721,Downtown Palo Alto Farmers' Market,"Gilman St, between Hamilton and Forest",164,3,94301,37.44533,-122.159029
1021716,Downtown Phoenix Farmers Market,721 N Central Ave,340,47,85004,33.455875,-112.073418
1021411,Downtown Rogers Farmers Market,Railyard Park,341,30,72756,36.332762,-94.116
1005281,Downtown Santa Cruz Farmers' Market,Cedar St & Lincoln St.,342,3,,36.9724758,-122.0270374
1019525,Downtown Yakima Farmers Market,Yakima Ave & S 3rd Street,343,8,98901,46.602267,-120.502787
1019729,Dresden Farmers Market,421 Linden St.,344,13,38225,36.277008,-88.693465
1004676,Druid Hill Farmers' Market,3100 Swann Drive,118,35,21217,39.317944,-76.645847
1005358,Dublin,4201 Central Parkway,345,3,94568,37.710402,-121.878639
1005197,Dubuque Farmers Market,Iowa Street between 10th & 13th Streets,346,23,52001,42.504521,-90.667851
1019994,Duluth's Downtown Farmers' Market,Gitch ode' Akiing formerly known as Lake Place Park 214 E Superior Street,347,20,55802,46.788805,-92.093948
1018953,Durango Farmers Market,259 W 9th Street,348,15,81301,37.273063,-107.882758
1000312,Durham Farmers' Market,501 Foster Street,349,43,27701,36.000559,-78.901856
1009830,Durham Farmers' Market,"Jackson Landing, 10 Old Piscataqua Road",349,34,,43.13661,-70.910656
1012345,Duvall Farmers Market,16201 Main St. NE at Taylor Landing,350,8,98019,47.744679,-121.986419
1019082,E. Center St. Farmers Market,40 East Center Street,351,44,89406,39.473055,-118.776299
1019870,Eagle Farmers Market,5th St. and Hwy 34,352,1,68347,40.816121,-96.432729
1021275,Eagle Springs Farmers Market,13555 Valley Lodge Parkway,353,14,77346,29.975941,-95.194557
1018159,East Atlanta Village Farmers Market,572 Stokeswood Avenue,354,24,30316,33.738679,-84.344531
1021303,East Boston Farmers Market - Summer/Early Fall,Across from 201 Border St.,355,28,2128,42.374945,-71.039467
1021414,East Boston Farmers On-line Market - Winter/Spring,250 Sumner street,355,28,2128,42.3313532,-71.076514
1011673,East End Market,2600 Navigation Blvd.,129,14,77003,29.757511,-95.342978
1019079,East Greenbush Library & YMCA Farmers Market,Between 10 and 20 Community Way in parking lot,356,19,12061,42.618063,-73.695566
1020133,East Hollywood Certified Farmers' Market,Hollywood Blvd. and Western Ave.,57,3,90028,34.10151,-118.308877
1011113,East Nashville Farmers' Market,511 Woodland Street,357,13,,36.172268,-86.764338
1019510,East Orange Farmer's Market,44 City Hall Plaza,358,2,7018,40.76125,-74.209979
1020172,East Palo Alto Community Farmers Market,2555 Pulgas Avenue,359,3,94303,37.469415,-122.13255
1012717,East Point Farmers Market,2757 East Point St.,360,24,30344,33.679488,-84.442141
1019094,East Side Farmers' Market,760 E Water St Elmira,361,19,14901,42.088757,-76.794875
1021300,East Vancouver Farmers Market,17701 SE Mill Plain Blvd.,362,8,98683,45.615372,-122.493777
1019125,Eastgate Plaza Farmers Market,4927 - 5089 Transit Road,232,19,14221,42.97573,-78.595325
1021698,Easthampton Farmers' Market,50 Payson Ave,363,28,1027,42.265213,-72.669332
1009867,Easton Farmers' Market,128 Larry Holmes Drive,364,11,18042,40.689778,-75.206274
1019624,Eastside Sunday Market,2020 MLK Jr. Ave,365,13,37915,35.976258,-83.900903
1021710,Eat Drink RI Market at Blackbird Farm,660 Douglas Pike,366,29,2917,41.901787,-71.505011
1021228,Echo Park Farmers' Market,1146 Logan St,57,3,90026,34.076409,-118.258276
1012783,Edenton Farmers Market,200 North Broad St,367,43,27932,36.062086,-76.607401
1012160,Edmonds Museum Summer Market,5th Ave between Main and Bell & Bell St. between 5th & 6th Ave,368,8,98020,47.811264,-122.376787
1019118,Egg Harbor Farmers Market,7809 Highway 42,369,21,54209,45.049942,-87.280716
1021652,El Cajon Farmers Market   Non-Certified,"1051 Greenfield Drive,",370,3,92021,32.801659,-116.960482
1021574,El Dorado Hills Town Center Certified Farmers Market,Town Center Blvd.,371,3,95762,38.651318,-121.064292
1019936,El Monte Farmers' Market,10700 Main Street,372,3,91731,34.075484,-118.03995
1012634,Eldora Farmers Market,Corner of Edgington Ave. and 14th Street,373,23,50627,42.36051,-93.100656
1019921,Elgin Farmers' Market,,328,14,78621,30.346425,-97.370756
1021587,Elkhart Farmers Market,301 NIBCO Parkway,374,17,46516,41.687093,-85.970818
1018900,Ellington Farmers Market,Main ST,375,32,6029,41.9036393,-72.4681079
1018898,Ellington Winter Farmers' Market,11 Pinney St,375,32,6029,41.8697886,-72.49035
1020112,Elliott County Farmers’ Market,2944 S KY 7,376,27,41171,38.093439,-83.122634
1018717,Elm Street Market,Elm Street,377,28,2465,42.349361,-71.229493
1021207,Elmwood Bidwell Farmers' Market,Elmwood and Bidwell,378,19,14221,42.923862,-78.877625
1002657,Emmaus Farmers' Market,235 Main St,379,11,18049,40.5366,-75.4903
1002769,Empire Farmers Market,10234 Front Street,380,6,49630,44.811224,-86.063056
1019398,Empire Market,931 E 4th St,381,18,64801,37.087883,-94.502691
1012045,Encino Farmers Market,17400 Victory Blvd,382,3,91406,34.1862306,-118.5128542
1018940,Engadine Area Farmers' Market,,383,6,,46.119734,-85.578248
1019684,Enka-Candler Tailgate Market,70 Pisgah Hwy,384,43,28715,35.54099,-82.684674
1018765,Ennis Farmers Market,104 North McKinney Street,385,14,75119,32.32763,-96.629391
1019687,Enumclaw Plateau Farmers' Market,1600 1st Street,386,8,98022,47.202843,-121.987466
1006678,Espanola Farmers Market,1105 N.Railroad  Avenue,387,48,87532,36.003598,-106.065805
1003568,Estacada Farmers Market,664 Wade St,388,16,97023,45.297544,-122.331858
1020053,Etna Farmers Market,514 N Hwy 3,389,3,96027,41.458263,-122.895854
1019954,Eureka Springs Farmers Market,44 Kingshighway,390,30,72632,36.398616,-93.746149
1010195,Evart Farmers Market,200 South Main Street,391,6,49631,43.899648,-85.259592
1005267,Ewa Beach Community Park (People's Open Market),91-955 North Road,392,12,96706,21.314954,-158.007174
1007798,Exeter Farmers’ Market,"Swasey Parkway, off Water Street",393,34,,42.983633,-70.950053
1019081,Fair Haven Market (hosted by The Vermont Farmers Market,On The Green,394,0,5777,43.59449,-73.266531
1018622,Fairfax Community Farmers' Market,124 Bolinas Avenue,395,3,94930,37.985729,-122.58998
1019186,Fairfax Community Farmers' Market,10500 Page Avenue,395,9,22030,38.846056,-77.308647
1019049,Fairland Farmers Market,50 N. Pine St.,396,49,74343,36.747475,-94.854471
1018562,Fairwood Farmers' Market,319 W. Hastings Rd.,397,8,99218,47.768387,-117.41778
1019457,Fallbrook Farmers' Market,600 Fallbrook Blvd,398,1,68522,40.877605,-96.728376
1010889,Falls Park Farmers Market,E Falls Park Drive and N 2nd Ave,399,41,57101,43.560777,-96.723203
1019841,Farm to Fork Farmers Market at Normandy Farms,7802 Marsh Road,400,17,46278,39.894467,-86.274997
1021514,Farm to Fork Farmers' Market,120 S Kimball Ave,401,31,83605,43.666163,-116.688851
1019499,Farm to Preschool Market: Mercy Cares for Kids,310 S. Manning Blvd,23,19,12206,42.665745,-73.798353
1019523,Farmers and Crafts Market of Las Cruces,221 N. Main St,402,48,88001,32.326444,-106.789695
1018937,Farmers Branch Market,12700 Denton Drive,403,14,75234,32.9178496,-96.8952798
1019436,Farmers Fresh Market,33955 Community College Dr.,404,50,99669,60.472775,-151.135361
1021666,Farmers Market - Covington,301 4th St,266,17,47932,40.137063,-87.39709
1021734,Farmers Market - Covington,301 4th St,266,17,47932,40.13712,-87.39697
1018131,Farmers Market at St. John's,750 Aurora Avenue,405,5,60540,41.767594,-88.159755
1020104,Farmers Market at the Depot,101 E. Depot Street,406,27,40069,37.683658,-85.217676
1021388,Farmers Market at the Fairgrounds,620 N Apple Street,407,17,46140,39.791832,-85.75624
1019705,Farmers Market North Scottsdale,8711 E Pinnacle Peak Road,408,47,85252,33.697831,-111.893119
1005069,Farmers Market of Bluffton,40 Calhoun Street,117,26,29910,32.234811,-80.862568
1021404,Farmers Market of Gravette,Hwy. 72 east,409,30,72736,36.419093,-94.446383
1021620,"Farmers Market of Madison, IN",412 West Main Street,34,17,47250,38.737406,-85.382985
1005159,Farmers Market of the Ozarks,2144 E Republic Rd,406,18,65804,37.136365,-93.255076
1021538,Farmers Market Ogden,Historic 25th Street and Grant Avenue,410,40,84401,41.220677,-111.973274
1021581,Farmers Market on Grand Parkway,1225 W Grand Parkway S,411,14,77494,29.761952,-95.775167
1019993,Farmers Market on Green River,1099 Legion Park Road,412,27,42743,37.244082,-85.482096
1020079,Farmers Market on the Square,105 Merchant Street,248,27,42728,37.103437,-85.307537
1020080,Farmers Market on the Square,105 Merchant Street,248,27,42728,37.103437,-85.307537
1021595,Farmers Market Partners,5855 Sienna Springs Way,413,14,77459,29.533266,-95.543858
1019862,Farmers on the Square,2A N Hanover St,414,11,17013,40.201689,-77.189254
1018427,Farmers' gateway Market,"Eastern Gateway Community College, 4000 Sunset Boulevard",415,4,43952,40.377613,-80.669759
1016870,Farmers' Market at Hamakua Harvest,46-2600 Hawaii Belt Highway,416,12,96727,20.070927,-155.44974
1021460,Fayette County Farmers Market,101 E East St,417,4,43160,39.53886,-83.427938
1019800,Fayette County Farmers' Market,401 N Central Ave,418,17,47331,39.641132,-85.139738
1012627,Fearrington Farmers' Market,East Camden,419,43,27312,35.800209,-79.090143
1002721,Felton Farmers' Market,"St. John's Church, Hwy. 9",420,3,95018,37.048109,-122.073815
1018973,Ferguson Farmers' Market,"Plaza 501, 501 S. Florissant Rd.",421,18,63135,38.7375795,-90.3027133
1021676,Ferndale Farmers Market,27021 Kanis Rd,422,30,72223,34.776925,-92.556803
1021665,Fernley Poolside Farmers Market,300 Cottonwood Lane,423,44,89408,39.594402,-119.247333
1020193,Ferry Plaza Farmers Market,1 Ferry Building,424,3,94111,37.795162,-122.39352
1012308,Festival Farmers Market,942 Main Street,425,19,12043,42.6792512,-74.4669868
1019771,Fibonacci's Mount Healthy Farmers Market,1445 Compton Road,426,4,45231,39.23161,-84.54095
1018193,Fifth Street Farmers' Market,West Fifth Street,427,4,44882,40.9509375,-83.1700053
1020008,Fightingville Fresh,315 W Simcoe,428,10,70501,30.211573,-92.031394
1019677,Firefly Farmers' Market,15615 East 21st Street North,296,22,67230,37.723203,-97.156597
1004377,Fish Creek Settlement Shops Farm Market,9116 Hwy 42,429,21,54212,45.113436,-87.24535
1019914,Fisherman's Memorial Park Farmers Market,1011 Point Judith Rd,430,29,2882,41.380339,-71.488239
1019897,Fleming County Farmers’ Market,1384 Elizaville Rd,431,27,41041,38.421407,-83.759523
1020091,Floyd County Farmers Market,361 N. Lake Drive,432,27,41653,37.670674,-82.775995
1020065,Floyd County Farmers Market (Floyds Knobs),400 Block Lafollette Station,433,17,47119,38.315002,-85.896109
1021453,Fondy Farmers Market,2200 W Fond du Lac Ave,434,21,53206,43.061843,-87.939701
1019123,Food for Thought Summer Market,200 S. David St.,435,46,82601,42.8482536,-106.3269901
1000958,Forest farmers market,15583 Forest Road,436,9,24551,37.36437,-79.285443
1021638,Forest Grove Farmers Market,2030 Main St,437,16,97116,45.520653,-123.112048
1021504,Forest Hills Farmers Market,1840 Ardmore Blvd,112,11,15221,40.425019,-79.86111
1002803,Forest Lakes Farmers Market,1650 Ashwood Blvd.,438,9,22911,38.1087,-78.44106
1018989,Fort Ben Farmers Market,,261,17,,39.865956,-85.989646
1021680,Fort Smith Farmer's Market,2nd and Gartison Ave,439,30,72901,35.534732,-94.80361
1018505,Fort Sumner Farmers Market,213 E Sumner Avenue,440,48,88119,34.470848,-104.244013
1019101,Fox Lake Farmers Market,17 E School St.,441,5,60020,42.398071,-88.17851
1002880,Frankenmuth Farmers Market,534 North Main Street,442,6,48734,43.344313,-83.738212
1019298,Franklin County Farmers Market,404 Wilkinson Blvd.,443,27,40601,38.201613,-84.88021
1019147,Franklin Farmers Market,Parking Lot 2 Blocks West of the Courthouse,335,17,46131,39.479799,-86.05768
1021654,Franklin Park Conservatory and Botanical Gardens Farmers' Market,1777 East Broad Street,139,4,43203,39.965067,-82.950712
1020092,Franklin Simpson Farmers' Market,304 N Main St,335,27,42134,36.724368,-86.577261
1020007,Franklin Street Bazaar,2000 W. Franklin Street,444,17,47710,37.980191,-87.594742
1021565,Frankton Town Market,102 S Church St,445,17,46044,40.222745,-85.779261
1012429,Freedom Farmers Market at the Carter Center,453 Freedom Pkwy NE,354,24,30307,33.76759,-84.35682
1018415,"Freeman Health System, West - Farmers Market",1102 W 32nd Street,381,18,64801,37.0526877,-94.5268459
1021353,Freight House Farmers' Market,421 West River Drive #32,285,23,52801,41.519748,-90.582083
1019600,Freiheit Village Farmers Market,2032 Central Plaza,446,14,78130,29.717952,-98.072988
1019404,Fresh Approach Mobile Farmers' Market,"213 F Street, Antioch",42,3,94509,38.016546,-121.812514
1012466,Fresh2You Mobile Market,,447,11,,39.9731925,-75.748454
1018671,FRESHFARM Dupont Market,1624 20th St NW,237,42,20009,38.911806,-77.044967
1011730,Friendswood Farmers Market,1100 S Friendswood Dr.,78,14,77546,29.520767,-95.191302
1021552,Ft. Thomas Farmers Market,801 Cochran Ave,448,27,41075,39.06822,-84.444349
1019762,Ft. Wayne's Farmers Market - Summer,301 E Wayne Street,449,17,46802,41.078388,-85.136155
1019285,Ft. Wayne's Farmers Market-Winter Market,216 W Douglas Ave,450,17,46802,41.074494,-85.140411
1019998,Fulshear Farmers' Market,9035 Bois d'Arc Lane,451,14,77406,29.690226,-95.888475
1018121,Fulton County Farmers Market,,452,17,46975,41.0647645,-86.2158331
1019949,Fulton Stall Market - Indoor Farmers Market,91 South St.,312,19,10038,40.706222,-74.003474
1006661,Fulton Street Farmers Market,1145 East Fulton,453,6,49503,42.963913,-85.640479
1021590,Fuquay-Varina Growers Market,121 N Main St.,454,43,27526,35.585512,-78.800147
1021444,Galena KS Farmer's Market,210 W 7th St,455,22,66739,37.075194,-94.635517
1021730,Galena KS Farmer's Market,210 W 7th St,455,22,66739,37.074792,-94.640914
1019630,Gallatin Farmers Market,160 W Franklin St,456,13,37066,36.388902,-86.448948
1011814,Galleria @ Tyler Riverside Farmers Market,1370 Galleria @ Tyler,457,3,92503,33.9097475,-117.4578357
1018970,Garden City Farmers Market,1210 Fleming,458,22,67846,37.9772536,-100.8532074
1018831,Gardner Farmers Market,136 E Washington St,459,22,66030,38.812999,-94.925777
1019728,Garfield Park Farmers Market,2345 Pagoda Dr,400,17,46225,39.731109,-86.14183
1021662,Garfield Park Neighborhood Market - Indoor Season,135 N Kedzie Ave.,7,5,60612,41.883908,-87.705713
1020095,Garrard County Farmers Market,117 Lexington RD,332,27,40444,37.614373,-84.583209
1019587,"Gas City, IN Farmers Market",1028 E Main Street,460,17,46933,40.489812,-85.598506
1021677,Gateway Farmers Market,602 East Jefferson Ave,461,30,71854,33.430713,-94.029739
1021416,General Store Market,1327 S. 18th Street,262,21,54812,45.402192,-91.844351
1012033,Georgetown Farmers Market,122 Screven St,462,26,29440,33.3662089,-79.2817826
1019602,Get Moving Houston Farmers Market - Acres Homes,6719 W. Montgomery,129,14,77091,29.857439,-95.422239
1019603,Get Moving Houston Farmers Market - Denver Harbor,6402 Market St.,129,14,77020,29.780472,-95.386342
1019604,Get Moving Houston Farmers Market - Hiram Clarke,3810 W. Fuqua St.,129,14,77045,29.614043,-95.43355
1019605,Get Moving Houston Farmers Market - Magnolia,7037 Capitol St. 77011,129,14,77011,29.734482,-95.300902
1019606,Get Moving Houston Farmers Market - Northeast,9720 Spaulding St. 77016,129,14,77016,29.851549,-95.304197
1019607,Get Moving Houston Farmers Market - Southwest,6400 High Star Dr.,129,14,77074,29.711246,-95.496227
1019608,Get Moving Houston Farmers Market - Sunnyside,9314 Cullen St. 77051,129,14,77051,29.656412,-95.356477
1021461,Gilbert Farmers Market,222 N Ash St,463,47,85234,33.354527,-111.790943
1021284,Gilmanton Community Farmers Market Association,1385 NH Route 140,464,34,3237,43.425347,-71.332318
1008573,Gladstone Farmers' Market,602 NE 70th Street,465,18,64118,39.2214548,-94.5730016
1002767,Glen Arbor Farmers Market,6394 Western Ave.,466,6,49636,44.897978,-85.986905
1005588,GLENCOE,201  W CHASTAIN BLVD. WEST,467,37,35905,33.957828,-85.934714
1019710,Glens Falls Farmers Market Association,10 Sanford St,468,19,12801,43.317546,-73.653504
1019414,Glenwood Sunday Market,,7,5,60626,41.837551,-87.681844
1021364,Goddard Memorial State Park Farmers Market,1095 Ives Rd,469,29,2818,41.649602,-71.444335
1020050,Good Local Markets White Rock Farmers Market,9150 Garland Road,470,14,75218,32.829956,-96.706451
1019833,Goodhue Farmers Market,411 Rosie Park Way,471,20,55027,44.403334,-92.624672
1021350,Gooding Farmer's Market,Corner of 13th and Main,472,31,83330,42.932194,-114.712524
1021308,Gorgas Park Farmers' Market,6300 Ridge Avenue,213,11,19128,40.037308,-75.221221
1012253,Goshen Farmers Market,South Church and Main Street,473,19,10924,41.401966,-74.322899
1021392,Grand Prairie Farmers Market,505 S. Main St.,474,30,72160,34.49802,-91.55237
1005937,Grand Rapids Farmers' Market,11 Golf Course Road,453,20,55744,47.221394,-93.529757
1017947,Grandin Village Farmers Market,2080 Westover Ave SW,475,9,24015,37.265053,-79.978064
1021484,Grant Park Farmers Market,1040 Grant Street SE,354,24,30315,33.725504,-84.376724
1019989,Grass Roots Farmers Market,W.145th. Street between Edgecombe & Bradhurst Aves.,312,19,10031,40.823804,-73.943475
1009808,"Great Falls Farmers Market, Turners Falls",Peskeomskut Park,476,28,1376,42.606069,-72.559612
1021456,Greater Washington County Food Bank Farmers' Market,909 National Pike West,477,11,15417,40.041867,-79.977907
1006059,Greater Watertown-North Country Chamber of Commerce Farm & Craft Market,317 Washington St.,478,19,13601,43.9720956981182,-75.9112726897001
1021289,Greeley Farmers Market,902 7th Ave.,479,15,80631,40.424001,-104.689105
1021319,Green City Market Lincoln Park,1817 N. Clark St,7,5,60614,41.915854,-87.633865
1021320,Green City Market West Loop,115 S. Sangamon St,7,5,60607,41.880039,-87.650439
1004849,Green Market at Piedmont Park,1071 Piedmont Ave NE,354,24,30309,33.784257,-84.378551
1006997,Green Scene Walker Community Farmer's Market,617 Michigan Avenue,480,20,56484,47.100539,-94.584857
1019805,Greenbelt Farmers Market,25 Crescent Road,481,35,20770,39.001146,-76.877296
1019132,Greene Farmers Market,42 Carmen Place,482,9,22968,38.233858,-78.384143
1018472,Gretna Farmers Market,739 Third Street,483,10,70053,29.9165076,-90.0653599
1021382,Grinnell Farmers Market,833 4th Ave,484,23,50112,41.743189,-92.724057
1021536,Grove Farm Market,4411 Kikowaena St,485,12,96766,21.965378,-159.395575
1019088,Grow Baton Rouge Farmers Market,4000 Gus Young Ave,486,10,70802,30.4617557,-91.1491139
1021247,Growing Augusta Pop-Up Market,3647 Karleen Rd,487,24,30815,33.387808,-82.11834
1018619,Guttenberg Farmers Market,400 Block of South River Park Drive,488,23,52052,42.782433,-91.095446
1005265,Halawa District Park (People's Open Market),99-795 Iwaiwa Street,489,12,96701,21.373292,-157.914948
1001804,Halifax Market Place & Farmers Market,209 South Main Street,490,9,24558,36.76317,-78.92836
1021584,Hamilton Park Farmers Market,Hamilton Park,491,2,7302,40.72781,-74.044847
1019673,Hamilton's Historic Farmers Market,345 High Street,492,4,45011,39.394328,-84.565522
1018774,Hammond's Grandson's Produce,7165 Ramsey Street,493,43,28310,35.1865196,-78.8531625
1019738,Hampden Farmers Market,106 Western Ave.,494,33,4444,44.74558,-68.847236
1019209,Hampton Blvd Farmers Market,7400 Hampton Blvd.,495,9,23505,36.912352,-76.305582
1001597,Hampton Farmers Market,1st Street NW and 1st Ave. NW,149,23,50441,42.742892,-93.209702
1021583,Hana Farmers Market,Hana Highway,496,12,96713,20.750751,-155.986942
1006425,Hanalei Farmers' Market at Hale Halawai 'Ohana O Hanalei,55299C Kuhio Hwy,497,12,96714,22.201731,-159.499208
1019065,Hancock County Farmers' Market,200 West Main Cross,498,4,45840,41.039589,-83.653004
1019148,Hanover Market House,210 East Chestnut Street,499,11,17331,39.803273,-76.98261
1019533,HAPI Fresh Farmers' Market,647 E. Market Street,263,4,44304,41.080456,-81.521429
1019770,HAPI Fresh Farmers' Market,381 Ontario Street,263,4,44310,41.080456,-81.521429
1019154,Hardy’s Farm Market,4525 Knoll Rd,449,17,46809,41.0359345,-85.2011808
1018380,Harker Heights Farmers Market,850 West Central Texas Expressway,500,14,76548,31.073245,-97.681611
1021696,Harlingen Farmers Market,218 E Tyler Ave,501,14,78550,26.189375,-97.694079
1021555,Harrison City Market,121 E. Main Street,502,6,48625,44.019859,-84.800573
1020122,Harrison County Farmers Market - Saturday,364 Oddville Ave,503,27,,38.394075,-84.286978
1020125,Harrison County Farmers Market - Wednesday,111 S Main St,503,27,,38.390005,-84.297879
1020107,Hart County Farmers Market,Main Street,504,27,42765,37.271492,-85.889578
1011782,Hartford Farmers Market,1001 N Oaks Ave,251,41,57033,43.632679,-96.947438
1019383,Harvest Home 125th Street Market,W. 125th Street & Adam Clayton Powell Blvd,312,19,,40.808707,-73.947702
1019373,Harvest Home Brower Park Market,Brooklyn Avenue & Prospect Place,312,19,,40.674043,-73.94453
1019374,Harvest Home Clinton Hill Market,Lafayette btwn Waverly & Washington,316,19,,40.688145,-73.96631
1019366,Harvest Home Co-Op City Market,Asch Loop & Aldrich Street,505,19,,40.870274,-73.831007
1019375,Harvest Home Coney Island Hospital Market,Ocean Pkwy btwn Shore Pkwy & Avenue Z,312,19,,40.58551,-73.966129
1019380,Harvest Home East Harlem Market,E. 104th Street & 3rd Avenue,312,19,,40.790266,-73.945625
1019381,Harvest Home Harlem Hospital Market,Lenox Avenue btwn W. 136th & W. 138th Street,312,19,,40.814968,-73.9401
1019377,Harvest Home Hunts Point Market,E. 163rd btwn Southern & Bruckner Boulevards,312,19,,40.820779,-73.890698
1019378,Harvest Home Jacobi Hospital Market,1400 Pelham Parkway,312,19,,40.857347,-73.846979
1019376,Harvest Home Kings County Hospital Market,Clarkson Avenue btwn E. 37th & E. 39th Street,312,19,,40.655889,-73.94252
1019382,Harvest Home Lenox Avenue Market,Lenox Avenue btwn W. 117th & W. 118th Street,312,19,,40.803029,-73.948857
1002339,Harvest Home Metropolitan Hospital Market,97-99th Street and 2nd Ave.,317,19,,40.785539,-73.94622
1002335,Harvest Home Mt. Eden Market,Mt. Eden Pkwy & Morris Avenue,505,19,,40.8427,-73.909517
1005332,Harvest Home North Central Bronx Market,E. Mosholu Pkwy N. & Jerome Avenue,505,19,,40.880479,-73.883864
1019379,Harvest Home St. Mary's Park Market,E. 149th Street & Eagle Avenue,312,19,,40.81385,-73.911898
1002345,Harvest Home West Harlem Market,Broadway btwn W. 138th & W. 139th St,312,19,,40.822369,-73.953193
1009660,Hawaii Kai Park n Ride (People's Open Market),300 Keahole Street,18,12,,21.283943,-157.713935
1018282,Haymaker Farmers' Market,Franklin Avenue & Summit Street,506,4,44240,41.150692,-81.360033
1020044,Haymaker Farmers' Market,"1435 E Main St,",506,4,44240,41.155218,-81.337712
1021431,Healthway Park Farmers Market,4055 South Roy Wilson Way,507,17,46163,39.726276,-85.91723
1021671,Healthy New Albany Farmers Market,200 Market Square,508,4,43054,40.083073,-82.798908
1021672,Healthy New Albany Indoor Farmers Market,150 W Main St,508,4,43054,40.083073,-82.798908
1021211,Heathsville Farmers Market,73 Monument Place,509,9,22473,37.916391,-76.473204
1019786,Heber Market on Main,250 South Main,510,40,84032,40.329639,-111.167763
1019757,Helen Albert Certified Farmers' Market,1200 N. Vista St.,511,3,90046,34.094113,-118.351434
1019192,Henderson County Tailgate Market,100 North King Street,512,43,28739,35.314825,-82.458271
1019895,Henderson Farmers Market,,513,1,,40.778922,-97.811491
1021286,Hendricks Farmers Market,Main Street,514,20,56136,44.508647,-96.426422
1019802,Hereford Farm Market,17004 York Rd,515,35,,39.4668834,-76.644722
1021282,Heritage Acres Drive-thru Market,"507 W B St,",516,1,69001,40.199476,-100.631876
1020174,Heritage Farmers' Market,1313 N. Mill St.,517,27,40741,37.135019,-84.096167
1003684,Heritage Harvest Certified Farmers Market @Victoria,12505 N Main St   91739,518,3,91739,34.110872,-117.532318
1019234,Heritage Market,418 Main Street,519,47,85938,34.1324115,-109.281673
1006285,Hernando Farmers Market,2535 Highway 51 South,520,45,38632,34.823026,-89.994281
1019486,Herndon Farmers Market,768 Lynn Street,521,9,20170,38.970411,-77.387108
1021355,Herriman Farmers Market,5355 W. Herriman Main St.,522,40,84096,40.515537,-112.015037
1020026,Hickory Point UMC Produce Market,2001 Lock B Road North,523,13,37043,36.433597,-87.24862
1019224,High Desert Farmers Market,18422 Bear Valley RD,524,3,92395,34.473755,-117.257633
1019220,High Point Farmers Market,901 N Main Street,525,43,27262,35.966162,-80.012645
1012260,High Springs Farmers Market,115 NE Railroad Avenue,526,7,32643,29.825509,-82.596257
1006831,Highland Farmers' Market,61 Highland Center Drive,295,9,24465,38.409646,-79.586195
1021327,Highlands Ranch Farmers Market,Highlands Ranch Pkwy and Dorchester Rd,527,15,80129,39.547023,-104.999685
1018951,Highway 7 Market,1118 1st Ave,528,23,50563,42.5171234,-94.5353089
1019688,Hillsboro Farmers Market,5137 Glade Chapel Road,529,18,63050,38.232278,-90.566655
1019959,Hillsboro Farmers' Markets - Downtown Hillsboro,1st Ave and NW Lincoln St,529,16,97124,45.524375,-122.990366
1019962,Hillsboro Farmers' Markets - Orenco Station,6125 NE Cornell Rd,529,16,97124,45.534675,-122.917552
1021249,Hillsdale Farmers' Market,1405 SW Vermont St,195,16,97219,45.477581,-122.692801
1019669,Hinesville Farmers Market,"S Commerce St, Hinesville, GA 31313",530,24,31313,31.846772,-81.59569
1008020,"Hingham Farmers Market, Inc.",96 Otis Street,531,28,2043,42.247351,-70.888967
1005076,Hinsdale Farmers Market,30 E. Chicago Ave.,532,5,60521,41.8036543,-87.928694
1019330,Historic Downtown Farmers Market,121 Orange Street,533,30,71901,34.504886,-93.050943
1021208,Historic Downtown Jersey City Farmers Market,Grove PATH Plaza,491,2,,40.719659,-74.042428
1010937,Historic Farmers Market of Lapeer LLC,272 N. Court St.,534,6,48446,43.053482,-83.309076
1021533,Historic Lafayette Farmers Market,"5th Street, between Ferry and Columbia",428,17,47901,40.418803,-86.891858
1021511,Historic Lewes Farmers Market,36707 Crooked Hammock Way,535,38,19958,38.746394,-75.150657
1021512,Historic Lewes Farmers Market,Savannah Rd. and Sussex Ave.,535,38,19958,38.767703,-75.147417
1021516,Historic Lewes Farmers Market,Dupont and Johnson Avenues,535,38,19958,38.772404,-75.147503
1011761,Historic Marion Tailgate Market,67 West Henderson Street,536,43,28752,35.682465,-82.008815
1018972,Historic Newburgh Farmers Market,1 E Water St,537,17,47630,37.944042,-87.405321
1008980,Holden MO Farmer's Market,101 S Market St.,538,18,64040,38.7186566,-93.9908869
1021547,Hollidaysburg Farmers Market,Montgomery and Allegheny Street (near the Diamond),539,11,16648,40.429065,-78.394591
1019302,Holly Farmers Market,Crapo Park,540,6,48442,42.7906,-83.625343
1018853,Holly Springs Farmers Market,300 West Ballentine Street,541,43,27540,35.650573,-78.83619
1021229,Hollywood Farmers' Market,1600 Ivar Ave,57,3,90028,34.099639,-118.328191
1018458,Home Grown Farm Market,21078 Three Notch Road,542,35,20653,38.247929,-76.420927
1007267,Homer Farmers Market,Ocean Drive,543,50,99603,59.638109,-151.512342
1009663,Homewood Farmers Market,Martin Ave and Chestnut Rd,544,5,60430,41.562264,-87.666231
1012076,Hood River Farmers Market,5th Street & Columbia Street,545,16,,45.710094,-121.515814
1019819,Hoodland Farmers Market,67212 E. HWY 26,546,16,97067,45.349594,-121.960918
1021705,Hope & Main's Schoolyard Market,691 Main Street,547,29,2885,41.725289,-71.28193
1021711,Hope Street Farmers Market,1015 Hope St,46,29,2906,41.799956,-71.356584
1012041,Hopkins Farmers Winter Market,33 14th Avenue North,548,20,55343,44.925619,-93.417104
1020100,Hopkinsville-Christian County Downtown Farmers Market,110 W 9th Street,549,27,42240,36.866111,-87.489438
1008366,Hopkinton Farmers Market,Main Street and Ash Street,550,28,1748,42.229299,-71.51777
1019313,Hot Springs Farmers Market,c/o Rajni Lerman,533,41,57747,43.432276,-103.479082
1018200,Hub City Farmers' Market,498 Howard St.,551,26,29303,34.956245,-81.942413
1005674,Hudson Farmers Market,Corner of Columbia and Sixth Streets,552,19,12534,42.248656,-73.783692
1018152,Huguenot-Robious Farmers Market,2051 Huguenot Road,553,9,23236,37.519516,-77.610398
1019990,Huguenot-Robious Farmers Market @ The Great Big Greenhouse,2051 Huguenot Road,553,9,23235,37.519378,-77.610901
1021610,Humpday Farmers Market,1237 E Main St,554,5,62901,37.730073,-89.193194
1021612,Humpday Farmers Market,2421 W Main St,554,5,62901,37.731906,-89.247353
1019056,Hunterdon Land Trust Farmers Market,111 Mine Street,555,2,8822,40.505223,-74.871267
1010598,Huntingdon Farmers' Market,842 Penn Street,556,11,16652,40.485653,-78.01723
1021268,Huntley Farmers Market,11712 Coral Street,557,5,60142,42.168577,-88.424435
1019586,Hutto Farmers Market,208 East Street,558,14,78634,30.545152,-97.548336
1021635,Hwy 80 Produce,903 E. US Hwy 80,559,14,75693,32.528217,-94.8938
1011325,Hyattsville Farmers Market,4310 Gallatin Street,560,35,20781,38.952822,-76.941854
1021703,Hyde Park Farmers' Market,2700 Erie Avenue,426,4,45208,39.139569,-84.442416
1012621,Ida Area Farmers' Market,2nd Street,561,23,51445,42.345173,-95.470874
1006417,Idaho Falls Farmers' Market,A - D St. Memorial Drive,562,31,83402,43.494592,-112.042508
1005080,Imlay City Farmers Market,120 N Main,563,6,48444,43.02429,-83.074322
1020136,Imogene Stout Market on Main,139 North Main Street,536,27,42064,37.334578,-88.081353
1019011,Independence Farmers Market,100 1st St. W,564,23,50644,42.4687056,-91.8949732
1019236,INDEPENDENCE UPTOWN MARKET,211 W. Truman Rd.,564,18,64050,39.093845,-94.418179
1018772,Indian Lake Community Farmers Market,144 JOHN RUST RD,565,19,12842,43.782397,-74.270529
1019861,Indiana County Farmers Market,8th & Church St.,566,11,15701,40.621852,-79.155021
1004384,Ionia Farmers' Market,South Steele Street and Adams Street,567,6,48846,42.9814841,-85.0677261
1012626,iowa falls farmers' market,Corner of Rocksylvania Ave. anb Stevens St.,568,23,50126,42.521222,-93.264356
1019340,Isabahlia farmers Market,410 Livoinia Ave,569,19,11212,40.663651,-73.901875
1003680,Issaquah Farmers Market,1730 10th Ave N.W.,570,8,98027,47.550637,-122.049115
1001641,Ithaca Farmers Market,Center & Pine River Street,571,6,48847,43.292319,-84.598559
1004380,Ivanhoe Farmers Market,North end of Main Street,572,20,56142,44.465197,-96.246607
1006376,Jackalope Square Farmers Market,130 S. 3rd,573,46,82633,42.759014,-105.384457
1018907,Jackson (MO) Farmers Market,252 E. Jackson Blvd.,132,18,63755,37.3778137,-89.6659726
1018343,Jackson County Farmers Market,Diploma Drive,574,21,54615,44.291599,-90.862319
1020106,Jackson County Farmers Market,1296South Main St.,575,27,40447,37.430289,-83.988324
1020108,Jackson County Farmers Market,3034 Welchburg Rd.,576,27,40486,37.330559,-83.922703
1019263,Jackson County Farmers Market - Outdoor Market,110 Railroad Avenue,577,43,28779,35.375375,-83.218394
1018978,Jackson County Winter Farmers Market,23 Central Street,577,43,28779,35.375581,-83.224149
1021281,Jackson Food & Farm Market,2708 Sherman Rd,132,21,53037,43.309792,-88.171891
1009970,"Janesville Farmers Market, Inc.","Town Square, Downtown Janesville",578,21,53545,42.681669,-89.023298
1008299,Jasper Farmers Market,"Park and Ride, Stegall Drive",579,24,30143,34.46747,-84.4343796
1021306,Jefferson Farmers' Market,925 Chestnut Street,213,11,19107,39.94994,-75.156213
1020192,Jeffersontown Farmers Market,10434 watterson trail,580,27,40299,38.19521,-85.562797
1020090,Johnson County Farmers Market,826 F. M. Stafford Ave.,581,27,41240,37.812048,-82.8042
1002907,Joshua Tree Certified Farmers Market,61651 Twentynine Palms Highway,582,3,92252,34.1349431,-116.3182535
1018242,Juneau Farmers Market and Local Food Festival,350 Whittier,583,50,99801,58.29985,-134.4136031
1005270,Kailua Distirct Park (People's Open Market),21 South Kainalu Drive,584,12,96734,21.395631,-157.737337
1008375,Kaiser Permanente Fresno Farmers Market,7300 N. Fresno Street,201,3,93720,36.843017,-119.781524
1019774,Kalamazoo Farmers Market,1204 Bank Street,585,6,49001,42.275163,-85.588501
1005252,Kalihi Valley District Park (People's Open Market),1911 Kam IV Road,18,12,96819,21.344726,-157.8698
1008118,Kamehameha Community Park (People's Open Market),1400 Kalihi Street,18,12,96822,21.335165,-157.872454
1021264,Kamuela Farmers Market,67-139 Pukalani Road,586,12,96727,20.017794,-155.66266
1005253,Kaneohe District Park (People's Open Market),45-660 Keaahala Road,587,12,96788,21.409789,-157.810103
1005254,Kapolei Community Park (People's Open Market),91-1049 Kamaaha Loop,588,12,96707,21.333263,-158.066932
1005255,Kaumualii Street (People's Open Market),700 Kalihi Street,18,12,96819,21.327407,-157.877976
1021748,Kayleen Weister,5000 W National Ave,434,21,,43.020291,-87.976663
1019003,Keller Farmers Market,400 Bear Creek Parkway,589,14,76248,32.926757,-97.243807
1021369,Kenosha Public Market,Outdoor Summer Market 625 52nd Street- Indoor Winter Market 625 57th Street,590,21,53140,42.587189,-87.819902
1021743,Kenosha Public Market - Summer Outdoor,625 52nd Street,590,21,53140,42.587252,-87.820653
1021349,Kenosha Public Market - Winter Indoor,625 57th Street,590,21,53140,42.584009,-87.819183
1020011,Kensington Farmers Market,Kensington train station parking lot,591,35,20895,39.026476,-77.073728
1021742,Kentwood Farmers Market,4900 Breton Rd SE,592,6,49512,42.874394,-85.595648
1021567,Kershaw County Farmers Market,906 Broad Street,593,26,29020,34.243195,-80.606634
1010636,King Farmers' Market,105 Moore Road,594,43,27021,36.276367,-80.341178
1019120,King George Farmers Market,King George Middle School at 8246 Dahlgren Rd,595,9,22485,38.27678,-77.2028
1003269,Kingston Farmers' Market,Wall Street - Uptown Kingston,596,19,12402,41.932986,-74.019483
1019491,Kingstowne,5870 Kingstowne Towne Center,597,9,22315,38.8347926,-77.276198
1020032,Kingwood Farmers Market,2814 Town Center Circle,598,14,77339,30.047327,-95.184629
1019266,Kirksville Kiwanis Farmers' Market,100 North Elson Street,599,18,63501,40.195114,-92.584293
1019212,Kirtland Growers Market,47 Road 6500,600,48,87417,36.7507894,-108.3605187
1011117,Kittery Community Market,10 Shapleigh Road,601,33,3904,43.090021,-70.736542
1021332,Knox County Farmers Market,107 N 4th St,602,18,63537,40.167824,-92.172403
1020075,Knox County Farmers' Market,34 Bond Hill Rd,603,27,40906,36.849364,-83.867633
1021633,Koreshan State Park Farmers Market,3800 Corkscrew Road,604,7,33928,26.433896,-81.815322
1021244,KSQ Farmers Market,401 Birch St,605,11,19348,39.842787,-75.705331
1021250,L. A Mercado Agricola,,606,51,979,18.431395,-66.011273
1021345,La Cienega Farmers Market,1835 La Cienega Blvd,607,3,90035,34.044973,-118.37983
1003343,La Familia Verde Farmers Market,East Tremont Ave. between Lafontaine Ave& Arthue Ave,505,19,10460,40.846468,-73.893737
1019986,La Familia Verde Market,Tremont Ave between Arthur Ave & LaFontaine Ave,505,19,10457,40.849357,-73.891978
1020123,La Grange Farmers' Market & Artisans,100 East Main Street,608,27,40031,38.407465,-85.379458
1019506,La Plata Farmers Market - Saturday,209 Washington Ave,609,35,20646,38.531647,-76.978699
1019649,Lachat Farmers Market,106 Godfrey Road West,610,32,6883,41.235769,-73.385668
1019409,Lafayette County Farmers Market,224 E. First Street,611,30,71845,33.355445,-93.577673
1019103,Lake Barrington Farmer's Market,28214 West Northwest Highway,612,5,60010,42.180694,-88.183818
1003863,Lake Oswego Farmers' Market,"Millennium Plaza Park, 200 First Street",613,16,97034,45.417855,-122.664774
1012206,Lake Placid Farmers' Market,281 Station Street,614,19,12946,44.2770413,-73.9841054
1019850,Lakes Area Growers Market,1001 Kingwood ST,615,20,56401,46.358912,-94.193437
1019851,Lakes Area Growers Market,7915 MN-210,616,20,56425,46.352551,-94.235284
1019198,Lakeside Farmers Market - Saturday - year round,6110 Lakeside Avenue,617,9,23228,37.6145155,-77.4710931
1002021,Lakeside Farmers' Market,1606 lakeside ave.,618,9,23228,37.614945,-77.470522
1002521,Lakewood Earth and Food (LEAF) Community Farmers' Market,15425 Detroit,619,4,44107,41.484539,-81.804266
1019427,Lakewood NY Farmers' and Artisans' Market,Chautauqua Ave,619,19,14750,42.103565,-79.326095
1020051,Lakewood Village Farmers Market,6434 E Mockingbird Lane,470,14,75218,32.835725,-96.751083
1019035,Lamoni Farmer's Market,610  E. Main St  or Corner of Main St & South Linden St,620,23,50140,40.62353,-93.933204
1021683,Lanark Farmers Market,101 N Broad St,621,5,61046,42.102271,-89.832636
1019852,Lancaster Farmers Market,West Chestnut Street,332,4,43130,39.712631,-82.603853
1019352,Landon's Greenhouse Farmers Market,505 College Meadows Drive,622,46,82801,44.760524,-106.948321
1005352,Lane County Farmers Holiday Market,Lane Event Center (Fairgrounds),623,16,97401,44.056748,-123.116207
1009803,Lane County Farmers Market,8th Ave & Oak St.,623,16,97401,44.050826,-123.09154
1019756,Lansdale Farmers' Market,400 Penn Street,624,11,19446,40.234201,-75.277496
1021291,Larimer County Farmers' Market,200 W. Oak St.,625,15,80521,40.586073,-105.080197
1021661,Latah Farmers Market,State Highway 8,626,31,83871,46.736826,-116.775987
1012344,Latham Farmers Market,109 Weatherly Road,627,37,35803,34.647522,-86.56453
1019030,Laurel Farmers Market,,628,45,39440,31.692522,-89.130033
1018834,Lawrence Farmers Market,,261,6,49064,42.219637,-86.048868
1021324,Lawrence Farmers' Market - Saturday Downtown Market,824 New Hampshire Street,261,22,66044,38.96859,-95.23448
1021325,Lawrence Farmers' Market - Tuesday Market,1140 Massachusetts Street,261,22,66044,38.963018,-95.235986
1019450,Lawrenceville Farmers Market,250 40th Street,112,11,15201,40.467011,-79.961092
1021647,LEAF Food Hub,"9535 US Hwy 51 N, Cobden, IL 62920",629,5,62920,37.533392,-89.254353
1016810,Lebanon City Market,309 S Lebanon St.,630,17,46052,40.0456714,-86.469047
1018113,Lebanon Farmers Market,579 Exeter Road,630,32,6249,41.635781,-72.212877
1019158,Legacy Farmers Market,18402 US Highway 281 N,21,14,78259,29.609419,-98.465436
1006652,Legion Park Farmers Market,6601 Biscayne Blvd,631,7,33138,25.836451,-80.183684
1002768,Leland Farmers Market,River Street,632,6,49654,45.022857,-85.759459
1019512,Lenexa Farmers Market,17201 W. 87th St. Pkwy,633,22,66219,38.965267,-94.803914
1010483,Lenoir County Farmers Market,100N. Herritage Street,634,43,2804,35.260631,-77.584119
1016916,Lettuce Eat Well Farmers' Market,4040 Harrison Ave,426,4,45211,39.1587027,-84.617203
1004651,Lewis County General Hospitals Farmers Market,7785 North State street,635,19,13367,43.794672,-75.500665
1019503,Lewiston Area Farmers Market,170 S Fremont St,636,20,55952,43.980991,-91.866902
1019808,Lewiston Farmers Market,65 Main St.,636,33,4240,44.096575,-70.220379
1019726,Lewiston Winter Farmers Market,130 East Ave.,636,33,4240,44.089594,-70.172185
1021470,Lexington Farmers' Market,Worthen Road Practice Field,116,28,2421,42.444009,-71.235394
1019346,Lexington Small Yet Mighty Winter Farmers Market,739 Massachusetts Avenue,637,28,2420,42.429242,-71.206748
1019650,Liberty Park Market,"Liberty Park, 600 East 900 South",638,40,84105,40.744796,-111.872426
1018927,Ligonier Country Market,110 Andi Lane,639,11,15658,40.2501886,-79.2507333
1021361,Lilburn Farmers Market,1400 Killian Hill Rd,640,24,30047,33.859588,-84.081093
1004848,Lincoln County Producers' Markets,360 Lincoln Street,641,44,89008,37.61666,-114.5149
1011300,Lincoln Heights Certified Farmers Market,N. Broadway & Sichel,57,3,90031,34.07348,-118.213092
1020132,Lincoln Heights Certified Farmers Market,N. Broadway & Sichel,57,3,90031,34.073591,-118.213102
1019304,Lincoln Park Farmers Market,SW Corner Fort Street & Southfield Road,642,6,48146,42.249843,-83.177664
1021198,Linda Vista Certified Farmers Market,6939 Linda Vista Rd.,223,3,92111,32.785209,-117.170563
1019167,Linton Farmers' Market,,643,17,47441,39.039325,-87.149098
1019678,Litchfield Hills Farm-Fresh Market,West Street and Woodruff Lane,644,32,6759,41.743812,-73.189724
1019679,Litchfield Hills Farm-Fresh Market,421 Bantam Rad,645,32,6759,41.740678,-73.215193
1019631,Little Farm Store Market,520 Lucky Road,646,18,65746,37.118045,-92.680159
1019207,Little Italy Farmers Market,331 West 18th Street,647,11,16502,42.1155929,-80.085081
1019995,Little Italy Mercato CFM,555 W Date Street,223,3,92101,32.723123,-117.167574
1021390,Little River County Farmers Market,,648,30,71822,33.661403,-94.1176
1012027,Little River Farmers Market,4461 Mineola Ave,649,26,29566,33.880648,-78.640489
1019538,Livingston Farmers Market,Miles Band Shell Park,650,25,59047,45.654254,-110.556707
1018418,Livonia Wilson Barn Farmers Market,29350 W. Chicago,651,6,48150,42.362596,-83.331995
1018901,Local APX Market - Seasonal,1848 Church Street,652,9,24522,37.353215,-78.826847
1020094,Logan County Farmer's Market,255 John Paul Avenue,653,27,42276,36.866286,-86.884185
1019494,Lorton,8990 Lorton Station Blvd,654,9,22079,38.698239,-77.216355
1005431,Los Ranchos Growers' Market,"City Hall, 6718 Rio Grande Blvd. NW",655,48,87107,35.158683,-106.654919
1018919,Louisiana Community Betterment Farmer's Market,"Sunset Park, Georgia Street",656,18,63353,39.441188,-91.062659
1000462,Loveland Farmers Market,205 Broadway Street,224,4,45140,39.266388,-84.259924
1016820,Low-Line Market at Southport,3410 N Southport Ave,7,5,60657,41.943816,-87.664233
1021727,Lowell Area Farmers' Market,11940 Fulton St,657,6,49331,42.93063,-85.372381
1011233,Lower Valley Farmers Market,Main street,658,16,97885,45.570355,-117.528643
1018922,Lowville Farm and Craft Market,5473 Bostwick Street,635,19,13367,43.793854,-75.491021
1011800,LSI Global Greens Farmers' Market,3200 University Ave,84,23,50311,41.599698,-93.660454
1021257,Ludington Farmer's Market,,659,6,49431,43.955713,-86.447744
1019622,LVHMC Bluemont Farmers Market,"EE Lake General Store, 33721 Snickersville Turnpike",660,9,20135,39.110875,-77.833365
1019177,LVHMC Cascades Farmers' Market,21060 Whitfield Drive,661,9,20165,39.031603,-77.395364
1019175,LVHMC Leesburg Farmers Market,"101 Catoctin Circle, S. E.",662,9,20175,39.107555,-77.565734
1019176,LVHMC Loudoun Station Farmers Market,Gramercy Park Drive and Central Station Drive,663,9,20147,39.006277,-77.489597
1019940,Lynchburg Community Market,1219 Main St,664,9,24504,37.411517,-79.140379
1019435,Lynden Farmers Market,4th and Grover Street at Centennial Park,665,8,98264,48.944087,-122.452228
1011538,Mableton Farmers Market,5239 Floyd Road,666,24,30126,33.826085,-84.575384
1000481,Madison County Farmers Market,112 N. John Wayne Dr.,667,23,50273,41.335222,-94.013604
1012249,Madison Farmers Market,Highway 40 E. and 1st St.,34,20,56256,45.0087575,-96.1754168
1005201,Madison NJ Farmers Market,Central Avenue between Cook Avenue and Main Street,34,2,7940,40.759057,-74.414532
1012046,Madras Saturday Market Holiday Market,"7th Street, between C and B Streets",668,16,97741,44.638418,-121.127162
1021339,Madrona Farmers Market,1126 Martin Luther King Jr Way,66,8,98122,47.612616,-122.295751
1019360,MADWest Winter Farmers' Market,55 South Gammon Road,34,21,53717,43.066326,-89.502026
1021197,Main Street DeFuniak Farmer's Market,Baldwin Avenue between 7th and 8th St.,669,7,32435,30.720266,-86.1137
1018407,Main Street Dyersburg Farmers Market,335 Clark Ave. South,670,13,38024,36.030081,-89.389549
1005528,Main Street Farmers Market,South Main at Wheeling,237,11,15301,40.169,-80.245
1006837,Main Street Farmers Market,401 Main Street,671,3,95667,38.730544,-120.796965
1011119,Main Street Farmers Market,Main Street and Highland Ave,672,22,66720,37.6817937,-95.4504829
1019706,Main Street Farmers Market,1030 Main Street,673,11,18431,41.57517,-75.257553
1021624,Main Street Saturday Market,South Public Square,674,13,37130,35.845982,-86.392158
1019752,Main Street Wadsworth Farmers Market,151 Main Street,675,4,44281,41.028681,-81.732318
1019501,MainStreet Libertyville Farmers Market,413 N Milwaukee Ave,676,5,60048,42.287242,-87.954744
1005256,Makiki District Park (People's Open Market),1527 Keeaumoku Street,18,12,96822,21.303939,-157.836497
1019969,Manchester's Spruce Street Market,163 Spruce St.,677,32,6040,41.781503,-72.518324
1003980,Manhattan Farmers Market,South Broadway and West Main,317,25,59741,45.856793,-111.333325
1018217,Manistee Farmers Market,180 Memorial Drive,678,6,49660,44.249273,-86.323001
1018998,Manistique Farmers' Market,180 N. Maple Street,679,6,49854,45.959984,-86.243595
1005257,Manoa Valley District Park (People's Open Market),Manoa Rd,18,12,96826,21.314189,-157.807997
1019111,Mansfield Farmers Market,703 East Broad Street,680,14,76063,32.564588,-97.134052
1010286,Manson Farmers Market,157 E Wapato Way,528,8,98831,47.884784,-120.155979
1018310,Manson Farmers Market,,528,23,50563,42.527104,-94.539507
1005218,Manzanita Farmers Market,36465 N Hwy 101,681,16,97131,45.719007,-123.894248
1016799,Maple Valley Farmers' Market,25719 Maple Valley Black Diamond Road,682,8,98038,47.367729,-122.023367
1003238,Marietta Square Farmers Market,65 Church St,683,24,30060,33.953194,-84.549494
1021358,Marinette Artisan & Farm Market,1607 Main Street,684,21,54143,45.098174,-87.628231
1021713,Marion Farmers Market,2200 31st St,536,23,52302,42.044309,-91.580645
1019058,Marion Ohio Market,Main and Church,536,4,43302,40.593304,-83.122972
1019482,Market 23,2620 23 ST,139,1,68601,41.440025,-97.361665
1019368,"Market at the Park - Orland Park, IL",9705 W. 142nd Steet,685,5,60462,41.631943,-87.856517
1012031,Market Common Farmers Market,Deville St,686,26,29577,33.6699343,-78.9390094
1000242,Market in The Park,300 Conti,687,37,36602,30.69035,-88.045015
1019022,Market in the Park,W South Park Ave & Georgia St,688,21,54901,44.0053166,-88.557509
1000616,Market in The Park - Lavretta Park,200 Parkway Street West,687,37,36606,30.691614,-88.160082
1019185,Market Mondays at the Arsht Center,1301 Biscayne Blvd,631,7,33132,25.787138,-80.189855
1019866,Market of Life,3510 W 15th Ave,689,17,46404,41.595883,-87.344853
1019806,Market on Main,Ford Center Plaza 6th and Main St,444,17,47715,37.972884,-87.568349
1011972,Market on Military Summer,Military Avenue and West Mason Street,336,21,54303,44.52221,-88.06464
1021341,Market on the Green,105 Norton Park Drive,690,4,43213,39.97423,-82.875408
1019876,Market on the Square (BrokenkBow),,691,1,,41.40541,-99.63987
1019189,Market Square Farmers' Market,500 Howard Baker Jr Ave,365,13,37915,35.965659,-83.910506
1019924,Marksville Main Street Fresh Market,317 North Main Street,692,10,71351,31.12742,-92.066002
1019843,Marlette Farmers Market,3048 Main Street,693,6,48453,43.327346,-83.080532
1020190,Marshall County Farmers Market,1933 Mayfield Highway,694,27,42025,36.842165,-88.378744
1002929,Marshfield Farmer's Market,140 Main St  (Route 3A),695,28,2050,42.098148,-70.717317
1019659,Martin County Main Street Market,Main St. and Smithwick St.,696,43,27892,35.855219,-77.055113
1018976,Maryville Farmer’s Market,1 Schiber Ct.,697,5,62062,38.7331622,-89.9500804
1011139,Maryville Farmers Market - Saturdays,Founders Square,697,13,37801,35.756987,-83.969504
1019902,Mason County Farmers Market,2114 Old Main Street,698,27,41056,38.615073,-83.80842
1001281,Mason Farmers Market,100 block East Maple at Jefferson (in street),699,6,48854,42.580168,-84.4426
1005642,Mattapan Square  Farmers Market,882 Cummins Hwy,700,28,2126,42.3313532,-71.076514
1003199,Matthys Farm Market,57754 Crumstown Hwy,157,17,46619,41.65516,-86.35873
1019300,Mauldin Farmers Market,101 East Butler Road,701,26,29662,34.7796468,-82.3063956
1019968,Mauston Farmers' Market,220 East State Street,702,21,53948,43.801304,-90.082332
1020145,McCreary County Farmers Market,"299 Wilburn Ross Hwy,",703,27,42647,36.694321,-84.474473
1019487,McCutcheon/Mount Vernon,2501 Sherwood Hall Lane,25,9,22306,38.818343,-77.082026
1020134,McKinleyville CFM,2165 Central Ave,704,3,95519,40.944643,-124.100568
1019490,McLean,1659 Chain Bridge Rd,705,9,22101,38.943545,-77.192913
1020081,Meade County Farmers Market,1041 Old Ekron Rd,706,27,40108,37.988637,-86.166136
1019634,Medford Farmers Market,2501 Mystic Valley Parkway,707,28,2155,42.41853,-71.115435
1021314,Media Farmers' Market,Edgemont Street,708,11,19063,39.917838,-75.385551
1018908,Medicine Root/Oyate Teca Farmers Market,1000 Youth Center Drive,709,41,57752,43.424109,-102.176734
1019858,Medina Square Farmers Market,"39 public square, suite 305",710,4,44256,41.134636,-81.869513
1019759,Meigs County Farmers' Market,PO Box 702,711,4,45769,39.026596,-82.034026
1021209,Memphis Farmers Market,540 S. Front Street,17,13,38103,35.132038,-90.06008
1020199,Menifee County Farmers Market,62 Back Street,712,27,40322,37.951788,-83.62783
1002905,Menlo Park Farmers' Market,Chestnut & Menlo Avenues,713,3,94025,37.450822,-122.1841
1019816,Menominee Historic Downtown Farmers Market  Association,800 1st Street & 8th Avenue,714,6,49858,45.105926,-87.603938
1021357,Menominee Historic Downtown Farmers Market  Association,,714,6,49858,45.107233,-87.604562
1018093,Merchantville Market Off Centre,N. Centre St. & Chestnut Ave.,715,2,8109,39.9524734,-75.0490757
1019464,Meridian Main Street Market,33 E. Broadway Ave.,716,31,83642,43.609999,-116.392301
1021458,Metuchen Farmers Market,New Street and Pearl Street,717,2,8840,40.541112,-74.363008
1019137,Miami County Farmers Market,North Broadway and East 5th Street,718,17,46970,40.755229,-86.069521
1000021,Mid-Town Farmers Market,700 North Lamar Blvd.,719,45,38655,34.373647,-89.516816
1011076,Middlebury Farmers' Market,530 Exchange St,720,0,5753,44.026734,-73.169908
1020087,middletown farmer's Market,,721,27,40243,38.242222,-85.543717
1019683,Middletown Farmers' Market,12 S Church St,721,35,21769,39.441867,-77.54531
1019777,Midland Area Farmers Market,,722,6,48640,43.609016,-84.236727
1012786,Midtown Farmers Market,"6655 Delmar Blvd, Back Lot",723,18,63130,38.656378,-90.307251
1005633,Miles City Farmers Market,500 Main St  Riverside Park,724,25,,46.408215,-105.840096
1006681,MILFORD - DOWNTOWN FARMERS’ MARKET,108 West Main Street (Wasson Field),725,32,6460,41.226598,-73.062096
1009658,Mililani District Park (People's Open Market),94-1150 Lanikuhana Ave.,726,12,96789,21.440682,-158.018299
1020034,Milk Lady Derwood Fall 2020 Pickup/Delivery,16501 Redland Road,727,35,20855,39.126727,-77.150329
1020035,Milk Lady Derwood Farmers Market,16501 Redland Road,727,35,20855,39.126885,-77.150144
1020038,Milk Lady Shady Grove Farmers Market,9601 Medical Center Drive,727,35,20850,39.104422,-77.199488
1012523,"Mill City Farmers Market, Inc.",704 South 2nd Street,728,20,55401,44.978211,-93.256278
1010485,Millen Produce Market,Cotton Avenue,729,24,30442,32.802685,-81.936127
1018486,Milton Farmers' Market,6 Village Center Boulevard,730,38,19968,38.769132,-75.310511
1021454,Milwaukee Winter Farmers Market,524 S Layton Blvd,434,21,53215,43.025865,-87.944924
1019239,Mineola Main Street Farmers Market,115 E. Front St.,731,14,75773,32.662165,-95.489641
1019716,Minnetrista Farmers Market,1200 North Minnetrista Pkwy,732,17,47303,40.198978,-85.393346
1006069,Minturn Market,Historic Downtown Minturn,733,15,81645,39.58839,-106.4315
1020195,Mission Community Market,84 Bartlett Street,424,3,94111,37.755373,-122.419881
1016862,Mission Farm and Flower Market,5635 Johnson Drive,734,22,66202,39.0219446,-94.6512054
1021493,Mission Marquee Plaza Farmers' Market,3100 Roosevelt Ave,21,14,78214,29.472403,-98.525142
1018939,Missoula Farmers' Market,Circle Square (by the XXXXs),735,25,,46.87474,-113.992113
1010037,MLK Campus Farmers' Market,1670 E 120th St,57,3,90059,33.923533,-118.243583
1001104,Monday Farmers Market at your library,1515 SW 10th Avenue,736,22,66604,39.049968,-95.69624
1006547,Monroe County Farmer's Market,20 E. Willow St.,737,6,48162,41.91965,-83.39378
1012314,Monroe Farmers Market,10th St and 16th Ave,737,21,53566,42.601889,-89.639224
1019844,Montavilla Farmers Market,7700 Block of SE Stark Street,195,16,97215,45.519002,-122.584311
1020166,Montclair Village Farmers' Market,"6131 La Salle Ave, Oakland, CA 94611",738,3,94611,37.826522,-122.209928
1004297,MONTEVALLO FARMERS MARKET,Middle Street and Island Street,739,37,35115,33.09948,-86.862926
1020085,Montgomery County Farmers' Market,153 South Maysville Street,740,27,40353,38.054333,-83.941302
1021377,Monticello Market on the Square,119 W. Washington St.,741,24,31064,33.304642,-83.683495
1011901,Montour Falls Farmers Market,300 West Main Street,742,19,14865,42.346431,-76.847748
1019507,Montrose Farmers Market - Summer,S. Uncompahgre and S. 1st Street,743,15,81401,38.479423,-107.874269
1021430,Moonlight Market,11110 Johnson Drive,744,22,66203,39.017779,-94.805322
1019480,Moreland Farmers Market,1400 SE Bybee Blvd,195,16,97202,45.47394,-122.651387
1018573,Morgan County Farmers Market,Intersection Main and Kennebec,745,4,43756,39.648855,-81.853276
1018314,Morgan County Farmers' Market Association,Main St. & Indiana St.,746,17,46151,39.423392,-86.428695
1018317,Morgan County Farmers' Market Association,Monroe & Main St.,747,17,46158,39.612806,-86.3796098
1021252,Morgan County Winter Farmers' Market Association,240 E Washington St.,746,17,46151,39.422141,-86.420904
1012560,Morganton Farmer's Market,111 North Green Street,748,43,28655,35.7466269,-81.688488
1021656,Morningside Farmers Market,1411 N. Morningside Drive NE,354,24,30306,33.793194,-84.356113
1021467,Morris County Winter Farmers' Market,6 Normandy Heights Rd,749,2,7960,40.796595,-74.448694
1020162,Morro Bay Main Street Farmers Market,Main St. and Morro Bay Blvd.,750,3,93442,35.365976,-120.849956
1018926,Moscow Farmers Market,"400 South Main, Moscow, Idaho 83843",751,31,83843,46.7317086,-117.0014061
1005559,Mosinee Farm Market,1101 Main Street,752,21,54455,44.797421,-89.708626
1005499,Mount Carroll Farmers Market,116 E Market Street,753,5,61053,42.101295,-89.978008
1018991,Mount Hope Farmers Market,250 Metacom Ave,754,29,2809,41.669478,-71.256882
1004717,Mount Pleasant Farmers Market,645 Coleman Boulevard,755,26,29464,32.790718,-79.8734
1018995,Mount Pleasant Farmers' Market,3200 Mt. Pleasant St NW,237,42,20010,38.931518,-77.038675
1000585,Mountain Fresh Oakland Farmers Market,5 Town Park Lane,738,35,21550,39.408747,-79.409554
1021307,Mt Airy Farmers' Market,601 Carpenter Lane,213,11,19119,40.046156,-75.196253
1021288,Mt. Pleasant Farmers' Market - Broadway Street,Broadway Street between Main & University Streets,755,6,48858,43.604433,-84.776052
1021287,Mt. Pleasant Farmers' Market - Island Park,331 N. Main Street,755,6,48858,43.607074,-84.780178
1021571,Mt.Washington Farmer's Market,320 N.Bardstown rd,756,27,40047,37.9700281,-85.695776
1010316,Mulberry Market,1155 College Street,757,24,31201,32.833797,-83.646551
1012725,Muldoon Farmers Market,1301 Muldoon Road,758,50,99504,61.208991,-149.731189
1018924,Muncie Makers Market,"Outside at Books & Brews, 2100 West White River Boulevard",732,17,47303,40.1883942,-85.410675
1018931,Munising Farmers' and Artisans' Market,Veteran's Drive,759,6,49862,46.412557,-86.653401
1019857,Murrysville Farmers' Market,3235 Sardis Road,760,11,15668,40.430121,-79.696788
1018903,My Matanuska Marketplace,610 S Valley Way,761,50,99645,61.59993,-149.113628
1019682,Myersville Farmers Market,301 Main Street,762,35,21773,39.505519,-77.56524
1011535,Napa Downtown Farmers Market,1100 West Street,763,3,94559,38.301189,-122.285131
1020055,Narrowsburg Farmers' Market,7 Erie Avenue,764,19,12764,41.596136,-75.05512
1003081,Nash County Farmers Market in Rocky Mount,1006 Peachtree St.,765,43,27804,35.955256,-77.802729
1020017,Natick Winter Market,Common Street,766,28,1760,42.290237,-71.341206
1021715,Navarro Farm,22155 S.104th Ave.,443,5,60423,41.488007,-87.867562
1021642,Nederland Farmers Market,80 E. Second St.,767,15,80466,39.962418,-105.508922
1018702,Needham Farmers Market,Garrity Way,768,28,2492,42.280988,-71.236446
1019737,Neosho Farmers Market,Spring & Jefferson St,769,18,64850,36.870009,-94.370028
1021634,Netcong Community Marketplace/Farmers Market,Rt. 46 & Main Street,770,2,7857,40.897787,-74.707004
1019908,Neutaconkanut Farmers Market,675 Plainfield St,46,29,2909,41.8118,-71.461775
1019725,New Baltimore Farmers Market,On Washington Street between Main & Front Streets in Historic Downtown,771,6,48047,42.68546,-82.737607
1012739,New Bedford Farmers Market- Brooklawn Park,1997 Acushnet Ave.,772,28,2745,41.675431,-70.923644
1012738,New Bedford Farmers Market- Clasky Common Park,1119 Pleasant St.,772,28,2740,41.644314,-70.928587
1019348,New Bedford Farmers Market- Downtown/Custom House Square,466 Brock Ave,772,28,2740,41.661303,-70.937913
1012737,New Bedford Farmers Market- Indoor,101 West Rodney French Blvd,772,28,2744,41.661303,-70.937913
1021478,New Braunfels Food Bank Farmers' Market,1620 S. Seguin Ave,446,14,78130,29.699301,-98.115109
1021601,New Era Farmers Market,1820 Ray Avenue,773,6,49446,43.559633,-86.347156
1019227,New Glarus Farmers Market,1101 Hwy 69,774,21,53574,42.809612,-89.632242
1019879,New Grand Island Farmers Market,,775,1,,40.922193,-98.357951
1021632,New Harmony Farmers & Artisans Market,407 West Tavern St.,776,17,47631,38.12899,-87.936384
1020043,New Harvest Farmers' Market,4775 New Harvest Lane,365,13,37918,36.039471,-83.883624
1005939,New Haven - CitySeed Downtown Farmers Market,Church St.,230,32,6510,41.307645,-72.924912
1005991,New Highland Baptist Church Farmers Market,9200 New Ashcake Road,777,9,23116,37.699238,-77.410676
1021336,New Orleans East Hospital Farmer's Market,5620 Read Boulevard,271,10,70127,30.030672,-89.975013
1021549,Newburgh Farmers' Market,97 Broadway,537,19,12550,41.49981,-74.011014
1021708,Newcastle Farmers Market,,778,46,82701,43.849469,-104.184983
1012044,Newmarket Farmers Market,5 Granite St,779,34,3875,43.0788567,-70.9380776
1019240,Newport Beach Certified Farmers' Market by Farmer Mark,1 McFadden Place,780,3,92663,33.607886,-117.928792
1019294,Nicholasville Farmers Market,717 N. Main Street,781,27,40356,37.893076,-84.56655
1019883,Norfolk Farmers Market,,782,1,,41.948007,-97.212686
1010614,NORFOLK FARMERS’ MARKET,19 Maple Avenue,495,32,6058,41.990739,-73.197873
1021279,North Albany Farmer's Market,6980 nw hwy 20,23,16,97321,44.63664,-123.178829
1020066,North Berkeley Farmers' Market,Shattuck and Vine,326,3,94702,37.880337,-122.269078
1021518,North Branch Farmers Market,6241 Main Street,783,20,55056,45.510887,-92.982014
1021243,North Canton Farmers' Market,1447 North Main Street,784,4,44720,40.892548,-81.409572
1021434,North Canton Farmers' Market,1000 West Maple St,784,4,44720,40.875871,-81.417769
1019407,North Creek Farmers Market,"River Front Park, Rail Road Place",785,19,12843,43.702638,-73.988272
1018875,North End Farmers Market,417 Blust Ave.,680,4,44903,40.770362,-82.524714
1021344,North End Farmers Market,311 Bowman St.,680,4,44903,40.766123,-82.523336
1018184,North Iowa Farmers Market,1st NE and Delaware,786,23,50401,43.15259,-93.199249
1018550,North Market Farmers' Market,59 Spruce Street,139,4,43215,39.9718961,-83.0043304
1001059,North Myrtle Beach Farmers Market,925 First Avenue South,787,26,29582,33.827655,-78.683173
1004865,North Prairie Farmers Market - Minot,Corner of 3rd Ave SW and Broadway,788,39,58701,48.233564,-101.295598
1009884,North Square Farmers Market,100 Spring St,789,11,17201,39.938459,-77.662435
1018455,North St. Mary's County Farmers Market,37600 New Market Turner Road,790,35,20622,38.473539,-76.77563
1019640,Northampton Pa Farmers Market,1401 Laubach Avenue Municipal Park,791,11,18067,40.684278,-75.489035
1003694,Northbrook Farmers Market,Cherry Lane and Meadow Road,792,5,60062,42.1314024,-87.8286573
1006780,Northeast Minneapolis Farmers Market,University Avenue NE and 7th Avenue NE,728,20,55413,44.995288,-93.262339
1010755,Northeast Washington (NEW) Farmers Market,Corner of Main and Astor,793,8,99114,48.543279,-117.905228
1002764,Northport Farmers Market,105 S. Bay Street,794,6,49670,45.129668,-85.614175
1018728,Northridge Farmers Market and family festival,9301 tampa ave,795,3,91324,34.2385732,-118.5562362
1019815,Northside Farmers Market,4222 Hamilton Ave,426,4,45223,39.163947,-84.539984
1021379,Northside Farmers' Market,2901 N. Sherman Ave.,34,21,53704,43.128145,-89.362808
1021554,Northville Farmers Market,Corner of 7 Mile and Center Streets,796,6,48167,42.42637,-83.483407
1019008,Norwich Farmers Market,2-75 North Broad Street,797,19,13815,42.531632,-75.523641
1019345,Nourish Knoxville's Winter Farmers' Market,500 Howard Baker Jr Ave,365,13,37915,35.96565,-83.910507
1020054,NOVA Central Farm Market,543 Beulah Road,798,9,22180,38.915538,-77.264712
1019127,Nutley Farmers Market,537 Franklin Avenue,799,2,7110,40.824341,-74.154584
1019828,Oak Creek Farmers Market,Drexel Town Square,800,21,53154,42.899242,-87.917781
1021566,Oak Hill Hops,3051 W STREETSBORO RD,801,4,44286,41.244993,-81.600093
1019488,Oak Marr,3200 Jermantown Road,802,9,22124,38.889444,-77.302226
1018829,Oak Square Farmers Market,640 Washington Street,803,28,2135,42.3506821,-71.1691939
1019223,Oakcrest Farmers Market,1300 Capitol Heights Blvd,804,35,20743,38.8708398,-76.9185759
1019971,Oakhurst Farmers Market,"630 East Lake Drive, SUITE E",291,24,30030,33.760143,-84.304799
1021750,Oakwood Farmer’s Market,E South Main Street,805,5,61858,40.115648,-87.776657
1019353,Ocala Downtown Market,corner of SE 3rd Street and SE 3rd Avenue,221,7,34471,29.19393,-82.320981
1001839,Ocean Beach Certified Farmers Market,4900 Newport Avenue,223,3,92107,32.74619,-117.25016
1006250,"Ocean City, NJ Farmers & Crafters Market",6th Street & Asbury Avenue,806,2,8226,39.282143,-74.572082
1019200,Ocean Pines Farmers & Artisans Market,239 Ocean Parkway,807,35,21811,38.3992566,-75.160072
1021412,Ohio Valley Farmers' Market,3200 Union St,808,4,43906,40.014375,-80.74212
1021413,Ohio Valley Farmers' Market,67800 Mall Rd,809,4,43950,40.069884,-80.865892
1001271,OHSU Farmers Market,"Mailcode L338, 3181 SW Sam Jackson Park Rd",195,16,97239,45.499865,-122.687706
1021356,Old Capitol Farmers Market,4th and Adams,406,5,62701,39.800581,-89.650662
1020130,Old L.A. Certified Farmers Market,North Figueroa & Ave. 58,57,3,90042,34.110124,-118.1919
1020131,Old L.A. Certified Farmers Market,N Figueroa & Ave. 58,57,3,90042,34.110171,-118.191934
1020146,Old Oakland Farmers' Market,492 9th street,738,3,94609,37.801382,-122.274596
1009659,Old Stadium Park (People's Open Market),2237 South King Street,18,12,,21.292322,-157.827323
1010865,Olde Beaufort Farmers' Market,300 Courthouse Square,810,43,28516,34.719572,-76.663201
1021667,Olde Pickerington Farmers' Market,89 N Center St,811,4,43147,39.886046,-82.754075
1019646,Olympia Farmers' Market,700 Capitol Way N,812,8,98501,47.050425,-122.902519
1018655,Omaha Farmers Market - Aksarben Village,67th & Center Street,813,1,68106,41.2377371,-96.0138738
1019343,Omaha Farmers Market - Old Market,11th & Jackson Street,813,1,68102,41.264675,-96.041927
1021685,One African! One Nation! Farmers Market,4031 W. Florissant Ave.,814,18,63107,38.674084,-90.218914
1001034,Oneida Farmers Market,N7332 Water Circle Place,815,21,54155,44.503625,-88.202341
1019317,Onslow County Farmers Market,4024 RIchlands Hwy,816,43,28540,34.782418,-77.49326
1021608,Open Air Farmers Market+ At The Dole Mansion,401 Country Club Road,275,5,60014,42.232554,-88.335331
1018807,Orange Community Farmers' Market,525 Orange Center Road,817,32,6477,41.2735586,-73.0210587
1020114,Orange Home Grown Farmers & Artisans Market,303 W. Palm Ave.,817,3,92866,33.791554,-117.855866
1018920,Orange Park Farmer's & Arts Market,2042 Park Ave,818,7,32073,30.165484,-81.701664
1008468,Oregon City Year-Round Farmers Market,"2051, Kaen Rd, off Beavercreek Rd.",819,16,97045,45.333082,-122.597822
1019202,Original Merced County Certified Farmers Market - Downtown Merced,16th St. and Canal St.,820,3,95340,37.30093,-120.484427
1020198,Orinda Famers Market,28 Orinda Way,821,3,94563,37.882764,-122.174543
1008360,Ormond Beach Farmers Market,22 S. Beach St. (City Hall Plaza),822,7,32174,29.284852,-81.055484
1019416,Orofino Farmers Market,101 Michigan Ave.,823,31,83544,46.477929,-116.255806
1019019,Oshkosh Farmers Market - Downtown,400-500 Blocks N Main St,688,21,54901,44.021478,-88.537573
1019023,Oshkosh Farmers Market - Downtown,400 & 500 Blocks N Main St & 100 Block Church Ave,688,21,54901,44.022875,-88.537461
1019025,Oshkosh Farmers Market - Winter,108 W New York Ave,688,21,54901,44.03325,-88.540004
1021699,Oswego Country Market,15 Main Street,824,5,60543,41.684774,-88.351584
1021215,Overbrook Farmers Market,Maple & Market St,825,22,66524,38.777419,-95.556782
1020023,Ovid Farmers Market,Main Street,826,19,14521,42.676729,-76.822157
1021384,Owen County Farmers Market,459 W. Morgan Street (SR46),827,17,47460,39.286121,-86.769484
1004212,Oxford Farmers Market,Corner of Lanier and McClanahan Streets,719,43,27565,36.3148277,-78.5866163
1021335,Oxford Farmers Market,E. Park Place,719,4,45056,39.510915,-84.741544
1012777,Oxnard Farmers Market,500 South C Street,828,3,93030,34.19798,-119.18027
1008946,Pacific City Farmers Market,6200 Camp St,829,16,97135,45.205076,-123.960749
1021721,Paducah Homegrown Farmer's Market,306 N 2nd Street,830,27,42001,37.090228,-88.596465
1021722,Paducah Homegrown Farmer's Market-Tuesday Market,300 N. 30th St,830,27,42001,37.074367,-88.637149
1021599,Pahrump Saturday Farmers' Market,900 E Hwy 372,831,44,89048,36.205326,-115.997901
1021200,Pajaro Valley CFM,Peck and Union st.,832,3,95076,36.910275,-121.755366
1019723,Palisades Winter Farmers' Market,675 Oak Tree Road,833,19,10964,41.011605,-73.917284
1021648,Palmas Farmers Market,170 Canderlero Dr,834,51,791,18.088831,-65.797119
1019102,Palo Alto College Farmers Market,1400 W Villaret Blvd,21,14,78224,29.321634,-98.543052
1005248,Palolo Valley District Park (People's Open Market),2007 Palolo Avenue,18,12,96813,21.29891,-157.797316
1018687,Palos Heights Farmer's Market,6601 W 127th Street,835,5,60463,41.6604652,-87.7831286
1011995,Palos Verdes Farmers Market,27118 Silver Spur Road,836,3,90274,33.779336,-118.373725
1021491,Paola Farmers Market,Park Square,837,22,66071,38.572307,-94.878291
1021398,Paragould Farmers' Market,100 W. Emerson,838,30,72450,36.05557,-90.486623
1019755,Park View Farmers Market,3400 Georgia Ave NW,237,42,20009,38.932172,-77.023928
1019761,Park View Farmers Market,3400 Georgia Ave NW,237,42,20010,38.932155,-77.02396
1006927,Parkville Farmers' Market,"English Landing Park, off Hwy 9 in Parkville MO",839,18,,39.187828,-94.683086
1019939,Paseo Farmers Market,3100 N Walker Ave,840,49,73103,35.501891,-97.52482
1021417,"Patch & Pasture, LLC",17004 Path Valley Rd,841,11,17262,40.151488,-77.766771
1019674,Pawling Farmers Market,Charles Colman Blvd & West Main Street,842,19,12564,41.564215,-73.600845
1019910,Pawtucket Farmers Market,374 Main ST,843,29,2860,41.877734,-71.387274
1018944,Pawtucket Wintertime Farmers Market,1005 Main Street,843,29,2860,41.862831,-71.39999
1021735,Pawtuxet Village Farmers Market,60 Rhodes Pl,844,29,2905,41.768065,-71.393666
1019068,Payette Farmers Market,Kiwanis Park,845,31,83661,44.069117,-116.935907
1021389,"Payson Farmers Market, LLC - Twilight Tuesdays",816 S. Beeline Hwy,846,47,85541,34.229808,-111.327601
1021718,PC Sunday Farmers Market,Madison Street,847,4,43452,41.512209,-82.941236
1020175,Peaceful Valley Farmers Market,14888 Peaceful Valley Road,848,3,95370,37.974304,-120.338076
1019685,Peach Street Farmers Market,234 S. Arcola St.,849,14,77515,29.169195,-95.428973
1018466,Peacham Farmers Market,555 Bayley Hazen Road,850,0,5862,44.327445,-72.170037
1019454,Pedernales Farmers Market,23526 TX-71,851,14,78669,30.387133,-98.084871
1020072,Pendleton County Farmers’ Market,68 Fairgrounds Road,852,27,41040,38.671615,-84.332926
1021688,Pendleton Indiana Farmers Market,Falls Park Drive,853,17,46064,40.005635,-85.744734
1019854,Pennington Farmers Market,101 Route 31 N,854,2,8534,40.3494,-74.79688
1021746,Perry County Farmers Market Perryville,,855,30,72126,35.005134,-92.801421
1019822,Perry Lecompton Farmers Market,2115 Ferguson Rd.,856,22,66073,39.08143,-95.392324
1018626,Petaluma Evening Farmers' Market,2nd Street between D St and B St,857,3,94952,38.233365,-122.637103
1018627,Petaluma Farmers Market,Petaluma Blvd S and D St,857,3,94952,38.231796,-122.636797
1012060,Petersham Friday Market,,858,28,1366,42.488744,-72.186669
1010839,Petworth Community Market,4100 9th St. NW,237,42,20010,38.9411512,-77.0250472
1019128,Pfafftown Farmer's Market,4725 Yadkinville Rd,859,43,27040,36.1304034,-80.256362
1001260,Pflugerville Pfarmers Market,901 Old Austin Hutto Road,860,14,78660,30.442585,-97.606001
1020126,Phelan Certified Farmers Market,4128 Warbler Road,861,3,92371,34.439822,-117.524831
1002060,Philmont Farmers' Market,116 Main St. - opposite Local 111 restaurant,862,19,12565,42.249303,-73.649443
1020177,Phoenix Hill NuLu Farmers' Market,1007 E. Jefferson St,863,27,40206,38.251583,-85.733398
1021494,Pica Pica Plaza Farmers' Market,910 SE Military Dr,21,14,78214,29.472403,-98.525142
1007245,Piedmont Triad Farmers Market,2914 Sandy Ridge Road,864,43,27235,36.087691,-79.992657
1010408,Pike Central Farm Market,910 Rose Avenue,865,35,20852,39.049352,-77.117929
1021731,Pike Farmers Market,5429 Lafayette Road,400,17,46254,39.849755,-86.258818
1020165,Pikeville Farmers Market,130 Adams Lane,866,27,41501,37.485971,-82.544326
1021380,Pine City Farmers Market,Main Street and 1st Ave NW,867,20,55063,45.832364,-92.970689
1010638,Pinecrest Farmers Market,11000 S. Red Road,868,7,33156,25.669124,-80.285895
1016803,Pitkin Verde Farmers Market,2094 Pitkin Avenue,316,19,11207,40.671863,-73.895438
1021641,Pittsburg Area Farmers' Market,119 E. 11St.,869,22,66762,37.418249,-94.703397
1018921,Pittsburg County Farmers Market,SW Corner of Main and Choctaw,870,49,74501,34.926816,-95.769944
1020005,Pittsfield Township Farmers Market,6201 W. Michigan Ave,871,6,48108,42.197733,-83.700262
1021572,Placerville Certified Farmers Market,337 Placerville Drive,671,3,95667,38.731615,-120.821856
1019328,Plainfield Township Farmers Market Hale,220 West Washington,872,6,48739,44.380388,-83.804474
1019885,Plainview Farmers Market,,873,1,,42.353346,-97.787145
1012268,Plainwell Farmers Market,554 Allegan St.,874,6,49080,42.452003,-85.650721
1019344,Plainwell Indoor Market,211 N. Main St.,874,6,49080,42.44491,-85.643297
1019478,Plateau Valley Farmers Market,2003 Main Street,875,15,81624,39.238943,-107.962277
1019616,Platteville Farmers Market - Summer,100 Park Place,876,21,53818,42.735314,-90.47957
1019615,Platteville Farmers Market - Winter,205 Market Street,876,21,53818,42.736018,-90.479874
1019884,Plattsmouth Downtown Farmers Market,,877,1,,41.005653,-95.894144
1020019,Playa Vista Farmers' Market,12775 W. Millennium,878,3,90094,33.975922,-118.416626
1008213,Pleasants Area Farmers Market,2nd Street,879,36,26170,39.390828,-81.205928
1021455,Pleasantville Farmers Market - Outdoor,Memorial Plaza (next to the train station),880,19,10570,41.135051,-73.793652
1004602,Plymouth Farmers Market,Garro St.,226,17,46563,41.34065,-86.307641
1011146,Poestenkill Farmers Market,38 Davis Drive,881,19,12140,42.6904758,-73.5635307
1005259,Pokai Bay Beach Park (People's Open Market),85-037 Pokai Bay Road,882,12,96792,21.442923,-158.188437
1021485,Ponce City Farmers Market on the BeltLine,675 Ponce de Leon Ave,354,24,30315,33.772425,-84.364611
1021462,Pontiac Farmers' Market,,883,5,61764,40.880177,-88.629562
1019027,Port Chester Farmers Market,Highland St,884,19,10573,41.00211,-73.661339
1018986,Port Sanilac Farmers' Market,228 S Ridge Street,885,6,48469,43.424322,-82.543109
1020037,Port Townsend Farmers Market,600 Block Tyler St,886,8,98368,48.11702,-122.760304
1018474,Portland Farmers Market - Kenton,N McClellan & N Denver,195,16,97217,45.583224,-122.686792
1018477,Portland Farmers Market - King,NE 7th and Wygant,195,16,97211,45.557097,-122.658982
1018478,Portland Farmers Market - Lents International,SE 92nd and Reedway,195,16,97266,45.4813183,-122.5685894
1018482,Portland Farmers Market - Portland State University,SW Park and Montgomery,195,16,97201,45.512348,-122.684833
1018483,Portland Farmers Market - Shemanski Park,SW Park and Main,195,16,97205,45.517125,-122.682231
1007797,Portsmouth Farmers' Market,"City Hall, 1 Junkins Avenue",887,34,3801,43.0711929,-70.7535534
1018963,Prairie Lakes Farmers Market,"2824 Prairie Lakes Dr, Ste. 201, Ste. 201",888,21,53590,43.1680835,-89.2702544
1019807,Prairie Township Farmer's Market,5955 W. Broad Street,889,4,43119,39.9695356,-83.009303
1021263,Prescott Farmers Market,900 Iron Springs Road,890,47,86301,34.557395,-112.482809
1021501,Pretzel Park Farmers Market,4300 Silverwood Street,213,11,19127,40.025446,-75.220985
1019149,Price Farmers Market,100 N 100 E,891,40,84501,39.6010798,-110.8088043
1019793,Prince George Farmers Market,6605 Courts Drive,892,9,23875,37.224538,-77.287343
1020086,Prospect Area Farmer's Market,12900 W. Hwy 42,893,27,40059,38.37102,-85.58996
1018215,Pueblo of San Felipe Farmers' Market,25 Hagen Road,894,48,87001,35.416275,-106.404321
1021617,Pullman Farmers Market,150 E Spring St,895,8,99163,46.729751,-117.174043
1019868,Purcellville Farmers' Market,717 E Main Street,896,9,20132,39.136603,-77.703843
1021266,Putnam Farmer's Market,1 Valley Park Drive,897,36,25526,38.440335,-81.995042
1011596,Putnam Farmers Market,1 Valley Way,897,36,25526,38.441892,-81.99554
1003402,Puyallup Farmers' Market,"300  S Meridian (COVID operations at corner of  2nd and Main, downtown Puyallup)",898,8,98371,47.191241,-122.292435
1021618,QC Farmers' Market,1700 1st ave,899,5,61201,41.51278,-90.576384
1019477,Quapaw Farmers Market,326 N Main St,900,49,74363,36.955063,-94.787418
1010145,Queen Anne Farmers Market,W Crockett Street and Queen Anne Ave N,66,8,98109,47.637172,-122.357601
1005260,Queen Kapiolani Park (People's Open Market),Monsarrat and Paki Streets,18,12,96822,21.268812,-157.81638
1019122,Quincy Certified Farmers' Market,530 W. Main St.,901,3,95971,39.937091,-120.950176
1019315,Quincy Farmer's Market,128 N. 5th St.,902,5,62301,39.932754,-91.409173
1021579,Rail Yards Market,777 1st street SW,903,48,87102,35.075615,-106.649029
1011310,Randolph County Farmers Market,2959 County Road 333,904,37,36278,33.255362,-85.451892
1019204,Randolph County Farmers' Market,1966 Highway 62 West,905,30,72455,36.257409,-90.983393
1020093,Red Bird Farmers Market,70 Queendale Center,906,27,40913,37.009793,-83.526289
1019500,Red Lodge Farmers' Market,Lion's Park,907,25,59068,45.1913,-109.247918
1001766,Red Oak Farmers Market,307 East Reed Street,908,23,51566,41.009641,-95.228044
1020024,Red Stick Farmers Market  - Seasonal Tuesdays,7711 Goodwood Boulevard,909,10,70806,30.442682,-91.106845
1021277,Red Stick Farmers Market - Saturday Downtown Year Round,5th Street and Main Street,909,10,70801,30.45195,-91.185787
1003610,Red Stick Farmers Market - Thursday Year Round,6400 Perkins Road,909,10,70808,30.399197,-91.121067
1019410,Redland Community Farm and Market,12690 SW 280th Street,910,7,33033,25.506957,-80.395809
1019411,Redland Community Farm and Market,12690 SW 280th Street,910,7,33033,25.506957,-80.39582
1004750,Redlands Certified Farmers Market,100 E. State Street,911,3,92373,34.056448,-117.181441
1004751,Redlands Saturday Morning Certified Farmers Market,100 E. Redlands Boulevard,911,3,92373,34.05708,-117.180913
1000712,Reedsburg Area Medical Center Farmer's Markets,2000 North Dewey Avenue,912,21,53959,43.549612,-89.993406
1019235,Reidsville Market Square Farmers' Market,303 S. Scales Street,913,43,27320,36.3586088,-79.6640029
1021615,Reisterstown Farmers Market,120 Main Street,914,35,21136,39.465227,-76.8297
1009020,Rensselaer Farmers Market,110 W Harrison St.,915,17,47978,40.9356403,-87.1501069
1019493,Reston,1609 Washington Plaza,916,9,20190,38.948449,-77.342215
1002843,Rexburg Farmers Market,118 College Ave.,917,31,83440,43.823218,-111.782405
1018549,Richmond Farmers Market - Summer Season (May-October),47 N 6th St,553,17,47374,39.829996,-84.893377
1021272,Richmond Winter Farmers Market - Winter Season (November - April),204 S Second St,553,17,47374,39.825813,-84.900398
1019930,Ridgeway Farmers Market,299 Hughitt Street,918,21,53582,42.998521,-89.993242
1019142,"Right Choice, Fresh Start Farmers' Market",3310 Magnolia St.,919,26,29115,33.528187,-80.838621
1019145,"Right Choice, Fresh Start Farmers' Market",5484 Carolina Hwy,920,26,29042,33.315079,-81.144272
1005060,Rindge Farmers and Crafters Market,Bradford Street and Route 202,921,34,3461,42.765593,-72.03585
1021312,Rittenhouse Saturday Farmers' Market,1800 Walnut Street,213,11,19103,39.950039,-75.170836
1021302,Rittenhouse Tuesday Market,1800 Walnut Street,213,11,19103,39.950045,-75.170843
1019419,River Street Market,30 River Street,922,9,23803,37.233787,-77.40373
1019312,River Valley Farmers' Market,Center Avenue,923,25,59034,45.742235,-107.608015
1004073,Riverdale Park Farmers Market,4650 Queensbury Road,924,35,20737,38.962979,-76.935311
1019418,Riverfront Farmers Market,116 Dock St.,925,43,28401,34.234207,-77.94793
1018284,Riverside Arts Market,715 Riverside Avenue,816,7,32204,30.3164943,-81.6762903
1021409,Riverside Farmers Market,2800 Riverside Drive,926,17,46208,39.806671,-86.192041
1000194,Riverside Farmers' Market,10 Pine Ave.,457,5,60546,41.8277856,-87.8201027
1019259,Rivertown Farmers Market,303 Williams Blvd,927,10,70062,29.973156,-90.246653
1019927,Riverview Farmers Market,320 Ogden Avenue,491,2,7307,40.744736,-74.042798
1019635,Riverwalk Farmers Market,5 S. Walnut Street,725,38,19963,38.913062,-75.42808
1019070,Roanoke Farmer's Market,Main Street,475,17,46783,40.961979,-85.373322
1019899,Rock Valley Farmers Market,1013 13th Ave,928,23,51247,43.200223,-96.300832
1020173,Rockford Midtown Market,503 Seventh Street,929,5,61104,42.262526,-89.08098
1019033,Rockmart Farmers Market,108 Water St.,930,24,30153,33.997669,-85.053094
1012576,Rockville Farmers Market,Route 28 & Monroe Street,727,35,20850,39.0819115,-77.1492295
1021623,Rocky Butte Farmers Market,9200 NE Fremont St,195,16,97220,45.551352,-122.568013
1021606,Rocky Mount Farmers Market,435 Franklin St,765,9,24151,36.994866,-79.888073
1019048,Rocky Mountain Front Farmers Market,North Main Avenue & 8th Street NW,931,25,59422,47.818183,-112.188004
1011286,Rogers Farmers Market,12724 Main Street,932,20,55374,45.186933,-93.551965
1019747,Rogersville Farmer's Market,270 County Line Road,933,18,65741,37.115153,-93.066381
1003969,Rogue Valley Growers & Crafters Market,1492 East Main,50,16,97520,42.1949,-122.6905
1003970,Rogue Valley Growers & Crafters Market,99 Hawthorne St,707,16,97501,42.336896,-122.854244
1003971,Rogue Valley Growers & Crafters Market,Oak & N Main,50,16,97520,42.192172,-122.700426
1018637,Rohnert Park Farmers' Market,500 City Center Dr,934,3,94928,38.349284,-122.703949
1011778,Rolling Meadows City Markets,2720 Kirchoff Road,935,5,60008,42.078232,-88.016174
1019479,Ronan Farmers' Market,155-199 Hwy 93,936,25,59864,47.5276,-114.097574
1018349,Roosevelt Community Farmers' Market,380 Nassau Road,937,19,11575,40.6817846,-73.5908479
1019973,Rosa Parks Farmers Market,2020 Beatties Ford Road,208,43,28216,35.262802,-80.854493
1010821,Rose City Farmers Market,302 S. Broadway Ave.,938,14,75701,32.347948,-95.300309
1019194,Roslindale Village Main Street Winter Farmers Market,32 Birch St,939,28,2131,42.286072,-71.130709
1019791,Ross Township Farmers Market,920 Perry Hwy,112,11,15229,40.533713,-80.036108
1021535,Round Rock Farmers' Market,201 University Oaks Blvd,940,14,78665,30.557966,-97.688209
1021218,Route One Farmers Market,3745 Constellation Rd,941,3,93436,34.700679,-120.466224
1005261,Royal Kunia Park-n-Ride (People's Open Market),Kupuna Lp/Kupuohi Street,942,12,96797,21.38912,-158.032652
1019119,RT 639 Farmers Market,"7278 Ladysmith Road,",943,9,22546,38.016661,-77.518506
1021451,Running Springs Farmers Market and Artisan Faire,2645 Whispering Pines Drive,944,3,92382,34.206855,-117.104915
1003915,Rusk County Farmers Market,US Highway 8 & W. 2nd  Street,945,21,54848,45.464998,-91.09924
1019620,Russellville Community Market,320 West C St.,653,30,72801,35.280402,-93.135468
1021646,Russian River Farmers Market,16290 5th St,946,3,95446,38.503197,-122.998786
1021503,Russiaville Farmers Market,250 N Union St,947,17,46979,40.419151,-86.270804
1018975,Ruston Farmers Market,220 E. Mississippi Avenue,948,10,71270,32.529214,-92.635542
1019715,RVCC Winter Market,Rockfish School Lane,949,9,22920,37.7874422,-78.886752
1019825,Saint Mary Farmers Market,700 s third st,139,4,43206,39.948137,-82.994617
1019734,SaintParis FarmersMarket,135 W. Main St,950,4,43072,40.127699,-83.959772
1002062,Salamanca Farmers market,768 Broad st,951,19,14779,42.164734,-78.741263
1005214,Salem Farmers Market,3 East Main Street,952,9,24153,37.292997,-80.058606
1021613,Salem Farmers Market,32 Derby Square,952,28,1970,42.520767,-70.894541
1019211,Salem NH Farmers Market - Winter,14 Main Street,952,34,3079,42.781773,-71.2372585
1021546,Salinas City Center Certified Organic Farmer's Market,Gabilan Street,953,3,93901,36.675383,-121.65603
1004988,Saline Farmers Market,S. Ann Arbor Street,954,6,48176,42.165956,-83.781146
1004990,Saline Farmers Market,7265 Saline Ann Arbor Road,954,6,48176,42.179728,-83.785094
1021724,Salisbury Farmer's Market,16 Elm Street,955,28,1952,42.835542,-70.842243
1002485,Salmon Creek Farmers' Market at Legacy Hospital,2211 NE 139th Street,362,8,98686,45.720387,-122.648554
1019428,Salomon Farm Park Farmers' Market,817 West Dupont Road,449,17,46825,41.175641,-85.152678
1005262,Salt Lake Municipal Lot (People's Open Market),5337 Likini Street,18,12,96818,21.346157,-157.904131
1021468,San Antonio Food Bank Farmers' Market,5200 Enrique M. Barrera Pkwy,21,14,78227,29.418102,-98.59179
1009080,San Francisco Certified Alemany Farmers Market,100 Alemany Boulevard,424,3,94110,37.7373447,-122.4085979
1018449,Sanford Farmers' Market,919 Main St,956,33,4073,43.438711,-70.774653
1019913,Sankofa World Market,224 Dexter St,46,29,2907,41.811066,-71.42853
1020185,Santa Clara Farmers' Market,Jackson Street at Homestead Road,957,3,95050,37.364613,-121.967934
1021645,Santa Rosa Certified Farmers Market,50 Mark West Springs Rd.,958,3,95403,38.495737,-122.75197
1018625,Santa Rosa Community Farmers Market at the Veterans Building,1501 Farmers Lane,958,3,95404,38.434379,-122.689399
1018315,Santa Rosa Downtown Market (Wednesday Night Market),Courthouse Square & 4th St,958,3,95404,38.4406777,-122.71359
1011160,Santa Rosa Farmers Market,4587 Woodbine Road,959,7,32571,30.603977,-87.183559
1007261,Sara Hardy Downtown Farmers Market,152 East Grandview Parkway,960,6,49684,44.765173,-85.621764
1008303,Saracen Landing Farmers Market,200 Lake Saracen Drive,961,30,71601,34.231049,-92.004296
1012203,Saranac Lake Village Farmers Market,Riverside Park,962,19,12983,44.32463,-74.131251
1021577,Saturday Market at Steele,4350 Thomas Drive,963,3,95435,38.992994,-122.875318
1007250,Saugerties Farmers Market,115 Main Street,964,19,12477,42.080345,-73.946818
1021558,Scituate Farmers Market,600 Chief Justice Cushing Hwy,965,28,2066,42.19847,-70.769256
1021707,Scituate Rotary Farmers Market,46 Institute Lane,966,29,2857,41.848902,-71.579083
1012037,SCOTCH PLAINS FARMERS' MARKETPLACE,"430 Park Ave (Municipal Parking Lot), Scotch Plains, New Jersey 07076",967,2,7076,40.650167,-74.397557
1019627,Scotland Farmers Market,Rt. 14 & Rt. 97,968,32,6264,41.698757,-72.081503
1020088,Scott County Farmers' Market,corner of North Broadway and Washington Street,462,27,40324,38.211492,-84.559554
1019515,Scottsville Midweek Farmers' Market,61 Main St.,969,19,14546,43.022276,-77.753379
1019445,SE Columbus Farmer's & Grower's Market,5081 Carbondale Drive,139,4,43232,39.924927,-82.847372
1018167,Seacoast Eat Local Winter Farmers' Market - Exeter High School,1 Blue Hawk Drive,393,34,3833,43.0168516,-71.0003126
1018172,Seacoast Eat Local Winter Farmers' Market - Wentworth Greenhouses,141 Rollins Road,970,34,3869,43.2155618,-70.8601023
1019237,Sealy Farmers Market,410 Main Street,971,14,77474,29.78029,-96.159309
1021693,Searcy County Farmers Market,200 W Fair Street,972,30,72650,35.911945,-92.632893
1021664,Seaside Farmers Market,1140 Broadway,973,16,97138,45.993667,-123.919864
1021233,Secotan Market,2868 NC-345,974,43,27981,35.854615,-75.645391
1018773,Sedalia Area Farmers' Market,2233 W 16th St,975,18,65301,38.698011,-93.255481
1019610,Seed2Seed Farmer’s Market,100 north main st.,976,43,27101,36.09598,-80.244023
1019442,Seneca Falls Farmers Market,15 Water Street,977,19,13148,42.909109,-76.800314
1019395,Sevier County Farmers Market,Herman Dierks Park   604 East Hayes Avenue,978,30,71832,34.042245,-94.342133
1021700,Seward Farmer's Market,529 Seward St,979,1,68434,40.907721,-97.098509
1010838,Shallotte Farmers Market/Market on Mulberry,123 Mulberry Street,980,43,28470,33.975058,-78.386035
1019455,Shawano Farmers Market,235 S. Washington Street,981,21,54166,44.777707,-88.612868
1021429,Shawnee Farmers Market,11110 Johnson Drive,744,22,66203,39.017779,-94.805322
1001280,Shelby County Farmers Market,Hwys 44 and 59,982,23,51537,41.645926,-95.338882
1019976,Shelby County Farmers Market,151 W Washington Street,983,17,46176,39.52422,-85.780478
1020103,Shepherdsville farmer's Market,170 W. Joe B. Hall Avenue,984,27,40165,37.988053,-85.709198
1018988,Shiloh Farmers' Market,5300 Philadelphia Dr.,4,4,45415,39.819046,-84.235026
1019319,Shoreline Farmers Market,15415 Westminster Way,985,8,98133,47.741553,-122.349452
1012179,Shorewood Farmers Market,3400 Estabrook Parkway,986,21,53211,43.091905,-87.898448
1020004,Shreveport Farmers' Market,101 Crockett Street,987,10,71101,32.514186,-93.744962
1021397,Siloam Springs Farmers Market,205 Jefferson Street,988,30,72761,36.181621,-94.541074
1018771,Silver City Farmers' Market Downtown,901 N Pope ST,989,48,88061,32.774517,-108.276185
1021219,Silver City Farmers' Market Midweek Market,"3025 Highway 180 E, Silver City, NM 88061",989,48,88061,32.787733,-108.242482
1011044,Silver Lake CFM,1500 Griffith Park Blvd,57,3,90026,34.090541,-118.277386
1016822,Silver Valley Farmers Market,10 Station Ave,990,31,83837,47.536412,-116.120504
1018601,Silverdale Farmers Market,2222 Bucklin Hill Rd,199,8,98383,47.651931,-122.668607
1011811,Simi Valley City Hall Certified Farmers' Market,2757 Tapo Canyon rd,991,3,93093,34.285295,-118.718091
1010560,Sioux City Farmers Market,100 Pearl Street,992,23,51101,42.490552,-96.408445
1003169,Sitka Farmers Market,611 Lincoln Street,993,50,99835,57.051519,-135.326742
1018814,Sleeping Dragon Farmers Market,6475 Columbus Rd SE,994,48,88030,32.189126,-107.750939
1019869,Slippery Rock Farmers Market,"Gateway Park, 100 Midway Street",995,11,16057,41.062533,-80.050842
1020163,SLO Farm Supply Farmers Market,224 Tank Farm Rd,996,3,93401,35.247189,-120.667181
1010014,Smith County Farmers Market,110 Ag. Center lane,997,13,37030,36.2233523,-85.9461859
1021675,Snookz block mini market,"225 elm st, 4",998,3,93060,34.342681,-119.084049
1020022,SOCO Farmers' Market,3315 Hyland,999,3,92626,33.694867,-117.927099
1019926,Sodus Farmers' Market,58 West Main Street,1000,19,14551,43.237102,-77.062753
1020159,SoKY Marketplace Farmer's Market,636 Center Street,1001,27,42102,36.970919,-86.438462
1003836,Solana Beach Farmers Market,444 South Cedros Avenue,1002,3,92075,32.987194,-117.269204
1019829,Soldotna Saturday Farmers Market,193 E. Corral Ave,404,50,99669,60.49304,-151.067584
1019671,Somerset County Farmers' Market Inc.,800 Georgian Place,1003,11,15501,40.022787,-79.072141
1020039,Somerville Mobile Farmers' Market - Council on Aging,167 Holland Street,1004,28,2144,42.40098,-71.125686
1020040,Somerville Mobile Farmers' Market - East Somerville Community School,50 Cross Street,1004,28,2145,42.385778,-71.087099
1011934,Somerville Mobile Farmers' Market - Mystic,530 Mystic Avenue,1004,28,2145,42.396251,-71.091856
1011935,Somerville Mobile Farmers' Market - North Street,24 North Street,1004,28,2144,42.407206,-71.131331
1019803,Soutel Community Market,4750 Soutel Dr,816,7,32208,30.40374,-81.72001
1020067,South Berkeley Farmers' Market,Adeline at 63rd Street,326,3,94703,37.847765,-122.271931
1021697,South Collier Farmer's Market,6060 Collier Blvd,1005,7,34114,26.045266,-81.698398
1019385,South Cumberland Farmers Market,39 Ballpark Road,1006,13,37375,35.193923,-85.917223
1018138,South East Area Farmers' Market,900 Fuller Ave SE,453,6,49506,42.9464659,-85.6394126
1021214,South End Market at Atherton,2000 South Blvd.,208,43,28203,35.20911,-80.860801
1019599,South Fork Fun Food & Brew,3309 W. Hwy 29,462,14,78628,30.631014,-97.745633
1002526,South Hill Farmers Market,105 W. Danville Street,1007,9,23970,36.7244013,-78.1301422
1019915,South Kingstown Farmers Market  at Marina Park,2 Salt Pond Rd,1008,29,2879,41.428192,-71.49696
1021573,South Lake Tahoe Certified Farmers Market,2748 Young Street,1009,3,96150,38.927079,-119.982044
1019511,South Lyon Farmers and Artisans Market,110 W. Liberty,1010,6,48178,42.461015,-83.653169
1010997,South Miami Farmers Market,6130 Sunset Dr,631,7,33143,25.704072,-80.291066
1010445,South Milwaukee Downtown Market,11th and Milwaukee Avenues,1011,21,53172,42.9107287,-87.862688
1021553,South Orange Farmers Market,12 Sloan Street,1012,2,7079,40.7881258,-74.248205
1019091,South Side Farmers' Market,Alder Street and Cedar Avenue,242,11,18505,41.4003507,-75.6668643
1018098,South St. Joseph Farmers Market at the Junction,Lake & Illinois Avenues,1013,18,64504,39.718654,-94.865955
1021563,South Waterfront Farmers Market,3508 S Moody Avenue,195,16,97239,45.496936,-122.671046
1021589,South Windsor Farmers' Market,220 Nevers Rd.,1014,32,6074,41.842841,-72.55179
1002063,Southern Tier Farmers Market - Olean,1900 Constitution Ave,1015,19,14760,42.211214,-78.041832
1019979,Southshore Outdoor Market,8505 Durand Ave,1016,21,53177,42.697348,-87.888847
1021326,Southwest Plaza Farmers Market,Wadsworth and Bowles,1017,15,80123,39.611904,-105.09573
1005560,Southwest Virginia Farmers' Market,497 Farmers Market Drive,1018,9,24343,36.742228,-80.772836
1019305,Sowing Seeds Growing Futures Farmers Market,18917 Joy Road,1019,6,48228,42.362216,-83.130895
1018952,Spanish Peaks Farm Stand,23500 US Hwy 160,1020,15,81089,37.600391,-104.831846
1021568,Sparks United Methodist Church Farmer's Market,1231 Pyramid Way,1021,44,89431,39.544248,-119.753397
1019173,Speedway Farmers Market,1068 Main Street,1022,17,46224,39.793698,-86.247542
1019784,Spotsylvania Farmers Market - Spotsylvania Regional Medical Center,4600 Spotsylvania Parkway,1023,9,22407,38.219747,-77.495899
1019452,Spotsylvania Farmers Market - VDOT Commuter Parking Lot,12150 Gordon Road,1024,9,22407,38.29038,-77.563047
1019782,Spotsylvania Farmers Market - VDOT Commuter Parking Lot,12150 Gordon Road,1024,9,22170,38.289909,-77.559528
1021394,Springdale Farmers’ Market,992 E. Emma Ave.,1025,30,72764,36.18745,-94.11845
1003588,Square Market,Public Square,76,45,38606,34.316885,-89.952098
1021670,St. John Farmers Market,9660 Wicker Avenue,1026,17,46373,41.444077,-87.468144
1018312,St. Johns Farmers Market,N.Lombard and N.Philidelphia,195,16,97203,45.5901096,-122.7544853
1021466,St. Louis Farmers Market,300 North Mill Street,1027,6,48880,43.410742,-84.608462
1019628,St. Maries Farmers Market,,1028,31,83861,47.318286,-116.586445
1020176,St. Matthews Farmers Market,4100 Shelbyville Rd,863,27,40207,38.251785,-85.646194
1019675,St. Michaels Farmers Market,204 S Talbot St,1029,35,21663,38.785161,-76.225202
1007810,St. Paul Farmers' Market,210 Holyoke,1030,20,55044,44.6451,-93.2429
1012278,St. Petersburg Saturday Morning Market,First Street and First Avenue South,1031,7,33701,27.769964,-82.633652
1021483,St. Phillips Plaza Market,4280 N. Campbell Rd,1032,47,85718,32.285766,-110.942088
1012766,Stafford Community Farmers' Market,31 Main Street,1033,32,6076,41.953553,-72.304724
1018211,Stanly Commons Farmers Market,1000 N. First St.,1034,43,28001,35.366184,-80.197218
1021526,Stayton Farmers Market,Third Ave & Florence St,1035,16,97383,44.796453,-122.791922
1012100,STCC Farmers' Market,One Armory Square,406,28,1102,42.108668,-72.581067
1018918,STCC Open Air Market,180 Airport Road,1036,11,17257,40.050647,-77.477569
1021333,Steelville Farmer & Artist Saturday Morning Market,392 Main St,1037,18,65565,37.967138,-91.358368
1021334,Steelville Farmer & Artist Wednesday Night Market,"Hoppe Spring Park, Church Street",1037,18,65565,37.966076,-91.359291
1010057,Stones River Market,301 Spring Street,674,13,37130,35.852209,-86.416062
1019526,Stow Community Farmers Market,1567 Pilgrim Drive,1038,4,44224,41.168794,-81.452156
1018451,Stowe Farmers' Market,1799 Mountain Road,1039,0,5672,44.473531,-72.712004
1012116,Suffolk Farmers' Market,524 N. Main Street,1040,9,23434,36.737572,-76.581989
1019545,Summit Lake Neighborhood Farmers' Market,380 W. Crosier St.,263,4,44311,41.058965,-81.542318
1019036,Sumter Farmers Market,200 Miller road,1041,26,29153,33.9324793,-80.373
1019112,Sunday Market on Main Street,"4138 Main St, Unit A",1042,15,80547,40.529078,-104.981878
1007271,Sunland Park Ardovino's DC Farmers' Market,one Ardovino Dr,1043,48,88063,31.791358,-106.557437
1020186,Sunnyvale Farmers' Market,Murphy Avenue at Washington Avenue,1044,3,94086,37.385784,-122.026323
1021432,Superior Farm-to-Fantastic Farmer's Market,"Superior Food Court, Main Street",1045,47,85173,33.285146,-111.1103
1009707,Surfside Beach Farmers Market,Intersection of Surfside Drive and Willow Drive,1046,26,29575,33.6069616,-78.9743641
1008173,Surfside Sunset Market,Veteran's Pkwy & Surfside Blvd,178,7,33991,26.608161,-82.024341
1020149,Surprise Valley Farmers Market,501 Main,1047,3,96104,41.527832,-120.171665
1019481,Sustain Greenville Farmers Market,N1915 Julius Dr,154,21,54942,44.311141,-88.557375
1021643,Sustainable Food Center Farmers' Market Downtown,422 Guadalupe St,1048,14,78701,30.26766,-97.747306
1021644,Sustainable Food Center Farmers' Market Sunset Valley,3200 Jones Rd,1048,14,78745,30.230977,-97.807494
1002765,Suttons Bay Farmers Market,Intersection of M22 & M204,1049,6,49682,44.980186,-85.647075
1019981,Suwanee Farmers Market,330 Town Center Ave,1050,24,30024,34.05617,-84.063354
1021313,Swarthmore Farmers Market,121 Park Avenue,1051,11,19081,39.901671,-75.348771
1018923,Sweetwater Sunday Market,6942 West Comanche Avenue,1052,7,33634,27.999259,-82.560612
1019015,Tahoe City Farmers Market Thursday CFM,400 N Lake Blvd,1053,3,96145,39.169938,-120.14113
1020036,Tamarack Junction Casino Farmers' Market,13101 So. Virginia Street,1054,44,89511,39.416292,-119.755381
1018476,Taos Farmers' Market,400 Camina de la Placita,1055,48,87571,36.407207,-105.574539
1020073,Taylorsville Farmers Market Inc.,751 Taylorsville Rd,1056,27,40071,38.03192,-85.344893
1011738,TD Saturday Market,Main Street at West Court Street,154,26,29601,34.8485031,-82.4000115
1019138,Team Jaffrey Farmers Market,28 Main St,1057,34,3452,42.815213,-72.023787
1003982,Telluride Farmers' Market,South Oak St,1058,15,81435,37.936843,-107.813086
1020147,Temescal Urban Village Farmers' Market,5300 Claremont Ave.,738,3,94618,37.839774,-122.259736
1019075,Temple Terrace Farmers' Market,11302 N 56th St,1059,7,33617,28.050964,-82.394125
1021694,Tenino Farmers Market,po Box 554,1060,8,98589,46.853829,-122.860375
1018994,Terra Square Farmers Market,3380 Chicago Dr.,1061,6,49426,42.8677383,-85.8654557
1010998,Terre Haute Farmers Market,2800 Poplar Street,1062,17,47803,39.464145,-87.37607
1000710,Texas Farmers' Market at Lakeline,"Lakeline Mall parking lot, behind Sears & Dillard's",1063,14,78613,30.469036,-97.806683
1021616,Texas Farmers' Market at Mueller,2006 Philomena St.,1064,14,78723,30.300107,-97.703135
1018279,Texas Township Farmers' Market,7110 West Q Ave,585,6,49009,42.201444,-85.687996
1021235,The 'Whee Market,113 Market Street,1065,43,28723,35.301188,-83.18569
1021204,The Albemarle Farmers Market,Towncenter lane,438,9,22911,38.126837,-78.445556
1020049,The American Legion Farmers Market,2 S Artillery Dr,1041,26,29150,33.919521,-80.361114
1019047,The Ballpark Farmers & Artisan Market,7 Ballpark way,1066,33,4064,43.514488,-70.391653
1019933,The Berlin Farmers Market,Pitts Street and Commerce Street,1067,35,21811,38.325383,-75.219388
1021203,The BLVD Market,Lancaster BLVD,1068,3,93534,34.69773,-118.142518
1019596,The Capital Market of 20743,111 Capitol Heights Blvd,804,35,20743,38.887555,-76.913335
1018959,The Clarksville Downtown Market,One Public Square,523,13,37040,36.528219,-87.361048
1021254,The Corner Farmers Market,2200 Walker Avenue,1069,43,27403,36.069019,-79.828293
1019181,The cornwall farmers market,183 main street,1070,19,12518,41.442234,-74.059815
1019303,The Creede Farmers and Local Artisan Market,001 - 1st Street,1071,15,81130,37.852344,-106.926949
1019544,The East End Farmer’s Market,13060 Factory Lane,1072,27,40245,38.286927,-85.508543
1019775,The Fairfield Farmers Market,411 Wessel Drive,1073,4,45014,39.334042,-84.563916
1019931,the Farm Market,Main St,529,48,88042,32.920178,-107.569106
1019948,The Farm Market at Mill No. 5,"250 Jackson Street, 5th Floor",657,28,1852,42.641166,-71.312805
1019166,The Farmers Market at Maryland,3900 Campus Drive,1074,35,20742,38.985968,-76.947513
1019626,The Farmers Market at Tiffany Farms,156 Sterling City Road,1075,32,6371,41.4878526,-72.101949
1019751,The Farmers’ Market at Rutherfurd Hall,1686 county road 517,1076,2,7820,40.914599,-74.813622
1021304,The Fountain Farmers' Market,The Singing Fountain,213,11,19147,39.929934,-75.163171
1019697,The Fresh MARTA Market - Bankhead Rail Station   Wednesdays  3:00-7:00p.m.,1335 Donald Lee Hollowell Parkway,354,24,,33.773326,-84.426967
1019700,The Fresh MARTA Market - College Park Rail Station   Thursdays  3:00-7:00p.m.,3800 Main Street,1074,24,30337,33.638149,-84.46008
1019699,The Fresh MARTA Market - Five Points Rail Station   Fridays  3:00-7:00p.m.,30 Alabama Street SW,354,24,30303,33.755202,-84.390574
1019698,The Fresh MARTA Market - H.E. Holmes Rail Station   Wednesdays  3:00-7:00p.m.,70 Hamilton E. Holmes,354,24,30311,33.764764,-84.476405
1019696,The Fresh MARTA Market - Tuesdays - West End Station,,354,24,,33.728652,-84.416667
1021276,The Groves Marketplace,11939 Madera Run Pkwy,353,14,77346,29.957574,-95.188057
1021619,The Historic City Market,"213 Market St SE 3rd Floor, Downtown Roanoke Inc.",475,9,24011,37.271606,-79.939064
1012357,The Indian Shores Sunday Morning Market,19305 Gulf Blvd,1077,7,33785,27.84788,-82.842837
1019001,"The Lewis Co. Farmers Market, Inc.",210 Center Ave,610,36,26452,39.037553,-80.465764
1021659,The LMH Market,1408 Short Eleventh St,398,5,62656,40.154175,-89.385624
1019504,The Market at Long Valley,66 East Mill Road,1078,2,7853,40.784492,-74.770016
1019966,The Market at Second Stage,194 Second St.,1079,9,24521,37.583162,-79.048809
1018422,The Market at Town Square,492 Hill St.,1080,21,54941,43.845375,-88.960382
1021702,The Market at White River State Park,801 W Washington St.,400,17,46204,39.767371,-86.171313
1016917,"The Market in Petersburg, Alaska",1st and Gjoa,1081,50,99833,56.81193,-132.955913
1019928,"The Marketplace at Lee Branch, Lee Branch Farmers Market",611 Doug Baker Blvd,1082,37,35242,33.40644,-86.666868
1011497,The Markets at Shrewsbury,12025 Susquehanna Trail S,1083,11,17327,39.793503,-76.730703
1019517,The Monroe Farmers’ Market,7 Fan Hill Road,737,32,6468,41.33221,-73.207774
1002101,The Orange Farmers Market,135 East Main st,817,28,1364,42.590734,-72.3033449
1019739,The Orchard Farmers Market,14697 Delaware St,1084,15,80023,39.961115,-104.992071
1019826,The Original Gresham Farmers Market,401 NE Second St.,1085,16,97030,45.499582,-122.426975
1019975,The People’s Market,3220 E 3rd St.,114,17,47403,39.164192,-86.491053
1018628,The Petaluma East Side Farmers' Market,320 N McDowell Blvd,857,3,94954,38.252337,-122.630899
1018624,The Springs Community Farmers' Market,Parking lot at Boyes Blvd & Hwy 12,1086,3,95476,38.31433,-122.482053
1021499,The St. James Farmers Market,304 Armstrong Blvd n,1087,20,56081,43.9784291,-94.614044
1000278,The Territory Farmers' Market,2000 Territory Drive,455,5,61036,42.404443,-90.31353
1020015,The Township of Little Falls Farmers Market,225 Main St,1088,2,7424,40.882225,-74.234683
1010798,The Village Farmers Market on California Street,625 Booth Street,1089,44,89509,39.514749,-119.827646
1012799,The West River Farmers Market,2242 N. Main St.,1090,0,5148,43.228259,-72.821619
1021586,The Wilmington Farmers Market,5329 Oleander Dr,925,43,28403,34.20895,-77.860425
1008826,The Woodland Farmers Market,250 First Street,1091,3,95695,38.6792311,-121.7737712
1008827,The Woodland Farmers Market at Woodland Healthcare,Corner of Cottonwood and Gibson Rd,1091,3,95695,38.663686,-121.793045
1019228,Thief River Falls Farmers Market,Corner of 3rd Street and Duluth Ave.,1092,20,56701,48.118841,-96.184263
1017961,Thursday Marin Farmers Market,"Avenue of the Flags, San Rafael , California 94903",1093,3,94903,38.001229,-122.534505
1009802,Tigard Farmers Market,Burnham Street at Main Street,1094,16,,45.429956,-122.772142
1021562,Titusville Open Air Market,11652 Hydetown Road,1095,11,16354,41.636919,-79.701982
1021744,Tiverton Farmer's Market,10 Quintal Drive,1096,29,2878,41.629479,-71.158928
1021447,Tontitown Farmers' Market,235 E. Henri De Tonti Blvd,1097,30,72770,36.175764,-94.232501
1019963,Torrington WY Farmers Market,21st & Main Street,1098,46,82240,42.064541,-104.184071
1021490,Tosa Farmers Market,7720 Harwood Ave,1099,21,53213,43.048733,-88.008791
1019393,Town of Hillsville Farmers Market,410 N. Main Street,1018,9,24343,36.766222,-80.7362
1019213,Town of Wadley Farmers Market,Main Street,1100,37,36276,33.1234,-85.573055
1006324,Townshend Farmers Market,6573 Route 30,1101,0,5359,43.084256,-72.711717
1021745,Travelers Rest Farmers Market,235 Trailblazer Lane,1102,26,29690,34.955543,-82.442632
1019638,Treasure Lake Farmers Market and Artisan Faire,95 Coral Reef,1103,11,15801,41.201813,-78.704999
1021343,Tremont Farmers Market,1200 Startkweather Ave,1104,4,44113,41.479328,-81.690301
1018933,Trout Creek Farmers Market,Trout Creek Park,1105,25,59874,47.832429,-115.587957
1020002,Troy Waterfront Farmers Market,Riverfront Park,1106,19,12180,42.732715,-73.691288
1019632,Tuesday Farmers Market at Meridianville,175 Monroe Road,1107,37,35759,34.859086,-86.57513
1018397,Tuesday Market at Bloomington Community Farmers Market,6th and Madison Streets,114,17,47404,39.167687,-86.537883
1021576,Tuesday Market in Library Park,200 Park Street,1108,3,95453,39.043583,-122.913879
1018283,Tupelo Farmers' Depot,415 South Spring Street,1109,45,38804,34.253733,-88.704327
1019349,Tuscaloosa River Market,1900 Jack Warner Pkwy,1110,37,35401,33.216479,-87.562834
1012573,Twin Bridges ALL YEAR Farmers' Market,Main Street City Park and Fairgrounds,1111,25,59754,45.542747,-112.33373
1005493,Twin City Farmers Market,106 Avenue A,1112,5,61081,41.787255,-89.697172
1006169,Two Rivers Farmers/Crafter Market,,1113,21,54241,44.150114,-87.569392
1018968,Union County Farm & Craft Market,106 Lakeside Drive,1114,26,29379,34.716023,-81.614994
1019215,Union County Farmers Market,290 Farmers Market Way,1115,24,30512,34.886298,-83.950669
1019925,Union County Farmers' Market,115 Durham Drive,1116,13,37807,36.237614,-83.8228
1010158,Union Farmers Market,280 Common Road,1114,33,4862,44.211498,-69.274562
1019540,Union Square Farmers Market,66-70 Union Square,1004,28,2143,42.379761,-71.094533
1018634,Union Street Farmers Market @ Celebration Pointe,4949 Celebration Pointe Ave,20,7,32608,29.62549,-82.39552
1021305,University Square Farmers' Market,3600 Walnut Street,213,11,19104,39.953276,-75.194883
1019764,Upper Arlington Farmers Market,2850 Tremont Rd,1117,4,43221,40.013849,-83.066903
1021726,Uptown Farmers Market,4620 N. Broadway,7,5,60640,41.965832,-87.657972
1001886,Uptown Greenville Umbrella Market,Fifth Street and Evans Street,154,43,27858,35.611005,-77.373338
1019105,Uptown Market,220 Maxwell Avenue,1118,26,29646,34.1903885,-82.1638058
1019448,Uptown Westerville Farmers' Market,62 N. State St.,1119,4,43081,40.12757,-82.932051
1019342,Urban Harvest Farmers Market,2752 Buffalo Speedway,129,14,77027,29.741093,-95.431103
1018852,Urbana Farmers' Market,102 Capitol Ave,1120,23,52345,42.223981,-91.873662
1019498,Urbana Library Farmers' Market,9020 Amelung Street,1121,35,21704,39.331636,-77.35447
1005631,USDA Farmers Market,Corner 12th St. & Independence Ave. SW,237,42,20250,38.887743,-77.028494
1001999,Utica Farmers Market,"Chancellor Park, Elizabeth St.",1122,19,13501,43.096382,-75.225983
1018535,Vance County Regional Farmers Market,210 Southpark Dr.,513,43,27536,36.3378971,-78.4244013
1019692,Vanderbilt Farmers Market,Galleria Shoppes at Vanderbilt,1005,7,34109,26.246337,-81.771054
1012325,Vashon Farmers Market - Saturday,17519 Vashon Highway SW,1123,8,98070,47.447921,-122.460758
1018597,Vermillion Area Farmers Market Summer Saturday Markets,Main and Market Streets,1124,41,57069,42.779219,-96.93415
1018598,Vermillion Area Farmers Market Winter Markets,515 High Street,1124,41,57069,42.7851033,-96.9346099
1019078,Vermont Farmers Market,Depot Park (at the Walmart Shopping Plaza),1125,0,5701,43.605826,-72.980071
1019080,Vermont Farmers Market,251 West Street,1126,0,5701,43.607916,-72.985592
1019182,Vernon County Farmers Market,PO Box 873,1127,18,64772,37.843772,-94.340102
1019952,Vernon Hills Park District Farmers Market,Lakeview Parkway and Hawthorn Parkway,1128,5,60061,42.241619,-87.962265
1020048,Verona Farmers Market,18 Gov Center Ln,1129,9,24482,38.193744,-79.010219
1012247,Vicksburg Farmers' Market,300 N. Richardson,1130,6,49097,42.126553,-85.528345
1019513,Victoria Farmers' Market,2805 North Navarro,1131,14,77901,28.821562,-97.000968
1012297,Village Market- Slavic Village,5106 Fleet Ave,1104,4,44105,41.455724,-81.654595
1018155,Village of Constantine Farmers' Market,165 N Washington St,1132,6,49042,41.843957,-85.670007
1019645,"Village of Lemont Farmers Market, ""Tuesday's on Talcott""",Stephen Street & Talcott Avenue (behind LaDolce Vita),1133,5,60439,41.675519,-87.998186
1019156,Village of Skokie Farmers' Market,5127 Oakton Street,1134,5,60077,42.026029,-87.756755
1006342,Vincennes Historic Farmers Market,102 N. Second St.,1135,17,47591,38.68061,-87.531359
1021297,Vine Street Market at O'Fallon Station,212 E 1st Street,1136,5,62269,38.591615,-89.908925
1018214,Vineyard Farmers Market,100 W. Shaw,201,3,93704,36.8097606,-119.7910413
1021487,Virginia Highland Farmers Market,1017 North Highland Avenue NE,354,24,30306,33.782208,-84.354177
1021251,Vizcaya Village Farmers Market,3250 S. Miami Ave,631,7,33129,25.747026,-80.212735
1018504,Voluntown Farmers' Market,195 Main Street,1137,32,6384,41.573913,-71.865502
1001925,Voorheesville Farmers Market,68 Maple Ave.,1138,19,12186,42.649656,-73.930027
1010394,Wabasha Downtown Farmers Market,Main Street West & Allegheny Avenue next to Hill’s Hardware,1139,20,55981,44.384124,-92.032633
1019155,Waco Downtown Farmers Market,500 Washington Avenue,1140,14,76701,31.55682,-97.132941
1021751,Wagoner Farmers Market & Music Inc.,125 North Main Street,1141,49,74467,35.960706,-95.377139
1005268,Wahiawa District Park (People's Open Market),1139 A Kilani Avenue,1142,12,96786,21.500382,-158.02258
1004574,Wahoo Farmers Market,Corner of 7th and Beech,1143,1,68066,41.212079,-96.617391
1005263,Waiau District Park (People's Open Market),98-1650 Kaahumanu Street,1144,12,96782,21.402403,-157.952992
1005269,Waikele Community Park (People's Open Market),94-870 Lumiana Street,1145,12,96767,21.453708,-157.971725
1005264,Waimanalo Beach Park (People's Open Market),41-741 Kalanianaole Highway.,1146,12,96795,21.331444,-157.6946
1005266,Waipahu District Park (People's Open Market),94-230 Paiwa Street,942,12,96767,21.387839,-157.999449
1019489,Wakefield,8100 Braddock Road,40,9,22003,38.832801,-77.196229
1021340,Wallingford Farmers Market,4800 Meridian Ave N,66,8,98103,47.663924,-122.333359
1020197,Walnut Creek Certified Farmers' Market,1799 Locust Street,1147,3,94596,37.902666,-122.040479
1018219,Wapello County Farmers Market,,1148,23,52501,41.017422,-92.425855
1021366,Washington on the Brazos Farmers Market,23400 Park Road 12,237,14,77880,30.2145775,-96.403458
1018552,Waterfront Farmers Market of Gig Harbor,3211 Harborview Drive,1149,8,98335,47.330952,-122.581273
1020021,Waterloo Rotary Farm Market,22 Locust Street,1150,19,13165,42.903737,-76.865814
1019394,"Watertown, CT Farmers' Market",690 Thomaston Rd.,478,32,6795,41.62258,-73.106489
1018319,Watford Market,501 7th St SE,1151,39,58854,47.797315,-103.271392
1001962,Waukon Farmers Market,850 Rossville Road,1152,23,52172,43.260191,-91.472878
1011229,Way Green Local Fare Market,1460 n Augusta Ave,1153,24,31503,31.235752,-82.3818511
1019613,Wayland Farmers Market on Main Street,149 South Main Street,1154,6,49348,42.67262,-85.642864
1004499,Wayland Winter Farmers' Market,397 Boston Post Road,1154,28,1778,42.363071,-71.369892
1019016,Wayne County Farmers Market,Center & Main,1155,40,84775,38.299219,-111.42089
1021559,Wayne County Farmers Market,200 Willow Ave. Route 6,673,11,18431,41.566626,-75.251698
1012485,Wayne State University Farmers Market,Warren and Woodward Ave,1019,6,48202,42.356528,-83.064645
1020047,Waynesboro Farmers Market,215 McElroy St.,1156,9,22980,38.068559,-78.885734
1019124,Waynesburg Farmers' Market,High Street,1157,11,15370,39.896462,-80.186112
1021709,Weaver Library Farmers' Market,41 Grove Avenue,1158,29,2914,41.818333,-71.37757
1021452,Webb City Farmers Market,106 East Tracy Street,1159,18,64870,37.140206,-94.462592
1006093,Webster Springs Farmer's Market,Baker's Island,1160,36,26288,38.47842,-80.415459
1000384,"Webster's Joe Obbie Farmers' Market, Inc.","1028 Ridge Road, Webster Towne Center",1161,19,14580,43.212229,-77.452948
1019864,"Wednesday, Indiana County Farmers' Market",Wayne Avenue & Hospital Rd,566,11,15701,40.610507,-79.159344
1012212,Weiser Farmer's Market,1 State Street,1162,31,83672,44.244083,-116.97113
1019641,Welcome Center Farmers Market,2931 Monroe Avenue,1163,23,51555,41.583893,-95.848181
1019114,Wellfleet Farmers' Market,200 Main Street,1164,28,2667,41.939238,-70.027995
1002890,Wellington Square Certified Farmers Market,4394 W Washington Blvd.,57,3,90016,34.03979,-118.334753
1002280,WesMar Farms Farm Stand,851 Couvillion St,1165,10,71355,31.035239,-91.979567
1019067,West End Farmers Market,1210 Patterson Ave. SW,475,9,24016,37.27783,-79.958472
1021569,West Haven Farmers Market,355 Main Street,1166,32,6516,41.271879,-72.949946
1018650,West LA Farmers Market,1600 Purdue Ave.,57,3,90025,34.045724,-118.450674
1011203,West Lafayette Farmers Market,3065 N Salisbury St,1167,17,47906,40.461469,-86.915836
1019424,West Orange Farmers Market,80 Main Street,1168,2,7052,40.780392,-74.238131
1019657,West Plains Area Farmers' Market,1380 Bill Virdon Blvd.,1169,18,65775,36.723987,-91.835774
1019877,West Point Farmers Market,,1170,1,,41.837741,-96.705918
1002177,West Point-Town of Highlands Farmers Market,Main street,1171,19,10928,41.36957,-73.96631
1016908,West Town Health & Farmers Market,2233 W Division St,7,5,60622,41.902872,-87.684396
1019911,West Warwick Farmers Market,186 Providence St,1172,29,2893,41.713691,-71.516856
1012204,Westbrook Village Second Sundays Marketplace,19251 N Westbrook Parkway,1173,47,85382,33.658197,-112.265596
1010319,Westchase District Farmers Market,10503 Westheimer Road,129,14,77042,29.736539,-95.560152
1019509,Westcliffe Farm and Maker's Market,"315 Main Street, Jess Price Park",1174,15,81252,38.136152,-105.466411
1021367,Westerly Land Trust Farmers Market,61-85 Main Street,1175,29,2891,41.375089,-71.83172
1019364,Western Greenbrier Farmers Market,Main and 11th st,1176,36,25962,37.972743,-80.760056
1019444,Westerville Saturday Farmers Market,21 South State Street,1119,4,43081,40.123435,-82.913324
1021274,Westfield Farmers Market,36 Court St,1177,28,1085,42.119742,-72.751662
1019797,Westgate Farmers Market,2925 W. Broad Street,139,4,43204,39.954491,-83.078781
1021246,Westland Farmers & Artisan Market,1901 N. Carlson,1178,6,48185,42.319173,-83.380778
1002816,Westminster Farmers' Market,21-33 Academy St. (Town Common),1084,28,1473,42.541635,-71.906161
1020070,Westport Rd Baptist Farmers Market,9705 Westport Road,863,27,40241,38.288727,-85.571695
1001661,Westside Community Market,750 University Row,34,21,53705,43.076159,-89.470061
1021217,Westside Community Market,750 University Row,34,21,53705,43.076385,-89.470022
1004515,Westside Farmers Market,510 W. Ottawa St.,1179,6,48933,42.73477,-84.559858
1005280,Westside Santa Cruz Farmers' Market,Corner of Western Drive and Mission St.,342,3,95060,36.9598,-122.057
1020020,Westwood Village Farmers Market,1030 Broxton St,57,3,90024,34.061784,-118.44653
1021258,Weymouth Farmers Market,1 Wildcat Way,1180,28,2190,42.181987,-70.941897
1020010,White House Farmers Market,105 College Street,1181,13,37188,36.467683,-86.653004
1021488,White Mountains Market,1501 W White Mountain Blvd,1182,47,85929,34.146798,-109.970749
1019955,White St. Saturday Market,26 White St.,390,30,72632,36.404902,-93.741728
1019392,Whitehaven Kulliye Farmers Market,3379 Millbranch Road,17,13,38116,35.055288,-90.008281
1020157,Whitley County Farmers Market,NIBROC Park,1183,27,40771,36.947,-84.096509
1020156,Whitley County Farmers Market (WCFM),Billwoods Park,1184,27,40769,36.741975,-84.159267
1019221,Whittier Farmers Market,2608 Blaisdell Ave S,728,20,55408,44.955321,-93.280032
1021495,WIC Clinic Callaghan Farmers' Market,4412 Callaghan Rd,21,14,78228,29.472403,-98.525142
1021497,WIC Clinic Naco-Perrin Farmers' Market,4020 Naco Perrin,21,14,78217,29.472403,-98.525142
1021498,WIC Clinic Pecan Valley Farmers' Market,802 Pecan Valley,21,14,78220,29.472403,-98.525142
1021496,WIC Clinic Salinas Farmers' Market,630 S General McMullen,21,14,78237,29.472403,-98.525142
1019878,Wilber Farmers Market,,309,1,,40.64738,-97.114886
1019069,Wild West Farmers Market,8116 19th St,1185,14,79407,33.578343,-101.99615
1018274,Wilkes County Farmers' Market,842 CBD Loop,1186,43,28659,36.159075,-81.1452
1019652,Wilkinsburg Thursday Open Market,225 Penn Avenue,1187,11,15221,40.445948,-79.890864
1021720,Williamsburg Farmers Market,345 W. Duke of Gloucester Street,1184,9,23185,37.270966,-76.705462
1019337,Williamson Farmers Market,54 3rd. Ave. W.,1188,36,25661,37.674029,-82.277984
1020187,Willow Glen Farmers' Market,1425 Lincoln Avenue,168,3,95125,37.296867,-121.819306
1019433,Winchester Farmers Market,Larawy Rd,1189,28,1890,42.452024,-71.137946
1019369,Winchester Farmers' Market,Meridian & Washington St.,1189,17,47394,40.1721,-84.977051
1011274,Winchester Road Farmers Market,1262 Winchester Rd,627,37,35811,34.801092,-86.526471
1021231,Windmill Park Farmers Market in Cornville,9950 E CORNVILLE RD,1190,47,86325,34.739119,-111.908597
1019229,Winnsboro Farmers' Market,Market Street,1191,14,75494,32.957692,-95.289646
1019848,Winter Farmers Market by Grow Oak Ridge,323 Vermont Avenue,1192,13,37830,36.017239,-84.251024
1019653,Winter Farmers Market presented by Bellin Health,333 Main Street,1193,21,54301,44.517943,-88.01125
1019449,Winter Makers Market,420 W. 1st St.,435,46,82601,42.850412,-106.329524
1018925,Winters Farmers Market at The Crossing at Hollar Mill,883 Highland Avenue SE,192,43,28602,35.735392,-81.3258422
1019463,Wisconsin Rapids Downtown Farmers Market,100-198 1st Avenue South,1194,21,54495,44.392924,-89.82674
1008231,Wise Farmers' Market,309 E. Main Street,1195,9,24293,36.9768742,-82.578257
1019845,WNC Farmers Market,"570 Brevard Road, Asheville, NC  28806",1196,43,28806,35.555133,-82.598648
1020158,Wolfe County Farmers Market,640 S KY 15,1197,27,41301,37.727015,-83.542778
1009027,Wolfeboro Area Farmers Market,233 South Main St,1198,34,3894,43.580593,-71.202747
1019098,Wolfforth Farmers Market,8924 CR 7100,1199,14,79382,33.5197029,-102.0163305
1020138,Woodford County Farmers Market,N. Gratz St.,1200,27,40347,38.149925,-84.682308
1020168,Woodford County Farmers' Market,525 Marsailles Road,1201,27,40383,38.050275,-84.733856
1019038,Woodstock Farm Festival,6 Maple Lane,1202,19,12498,42.040522,-74.117834
1005140,Woodstock Farm Fresh Market,Market Street and Elm Street,1202,24,30188,34.100488,-84.52092
1021317,Woodstock Farmers Market - Winter,11900 Country Club Rd.,1202,5,60098,42.310266,-88.435654
1021386,Woodstock Farmers Market-Saturday Summer,112 S. Benton St.,1202,5,60098,42.310266,-88.435654
1021385,Woodstock Farmers Market-Tuesday Summer,112 S. Benton St.,1202,5,60098,42.310266,-88.435654
1011337,Woodward Farmers' Market Association,13th St. and Locust Ave.,1203,49,73801,36.4314963,-99.3957807
1021328,Woolery Farmers' Market,2250 W Sunstone Dr,114,17,47403,39.138753,-86.559788
1019912,Woonsocket Farmers Market,450 Clinton St,1204,29,2895,42.007654,-71.504321
1007309,Wrightstown Farmers Market,Middletown Grange 576 Penns Park Road,1205,11,18940,40.336871,-75.106815
1017915,Wytheville Farmers Market,210 W. Spring Street,1206,9,24368,36.9486397,-81.0833677
1019708,Yardlet Farmers Market - Indoor Winter Market,65 N. Main St.,1207,11,19067,40.243417,-74.841627
1018508,Yardley Farmers Market,"Buttonwood Drive, Buttonwood Park",1207,11,19067,40.240829,-74.839997
1007259,Yates County Cooperative Farm and Craft Market (Penn Yan Market),"Main Street, North of Elm Street",1208,19,14527,42.661345,-77.053889
1002366,Yellow Green Farmers Market,1940 North 30th Road,1209,7,33021,26.03026,-80.169243
1019508,Yorktown Farmers Marketplace,1901 South Tiger Drive,1210,17,47396,40.177147,-85.495124
1019247,Your Neighborhood Farmers Market-CityCentre,800 Towne and County BLVD.,129,14,77024,29.780472,-95.386342
1019245,Your Neighborhood Farmers Market-LaCenterra at Cinco Ranch,23501 Cinco Ranch BLVD.,411,14,77494,29.7413678,-95.7750405
1019246,Your Neighborhood Farmers Market-Park Lakes,4503 Canyon Village  Trace Dr.,156,14,77396,29.9415214,-95.2539369
1019250,Your Neighborhood Farmers Market-Summerwood,14303 West Lake Houston Parkway,129,14,77044,29.9341141,-95.1773832
1019242,Your Neighborhood Farmers Market-The Groves,17317 Cathedral Pines Drive,156,14,77346,29.988144,-95.26831
1019244,Your Neighborhood Farmers Market-Towne Lake at Boardwalk,9945 Barker Cypress Road,1211,14,77443,29.9223808,-95.6872981
1019327,Ypsilanti Farmers Market- Downtown,16 S Washington,1212,6,48197,42.240285,-83.614751
1016909,Yreka Community Certified Farmers Market,1712 Fairlane Road,1213,3,96097,41.7070195,-122.6401341
1021545,Yucaipa Certified Farmers Market,12062 California St,1214,3,92399,34.032512,-117.044913
1019863,Zebulon Farm Fresh Market,103 N Arendell Ave,1215,43,27597,35.821835,-78.314111
1019792,Zelienople-Harmony Farmer's Market,Beaver Street and South Division Street,1216,11,16063,40.792698,-80.130181
